{"type":"FeatureCollection","features":[{"type":"Feature","id":811,"geometry":{"type":"MultiPolygon","coordinates":[[[[-121.47494099964558,54.7228339998302],[-121.47713699995845,54.729330000155763],[-121.4890769994322,54.735814999917572],[-121.49483500018705,54.744430000042641],[-121.49005099982196,54.751464999996003],[-121.5010760007051,54.756223999786449],[-121.51991900034976,54.766013999602698],[-121.52842999993292,54.77050899997252],[-121.52410200007714,54.778076999624538],[-121.52186199996591,54.790682000079464],[-121.52350299972711,54.797175999593222],[-121.54027300019274,54.799937000451145],[-121.54488899995118,54.804570999561463],[-121.54803000064048,54.812790000054115],[-121.55541899964417,54.819277000084824],[-121.58185599999688,54.823206999858655],[-121.6267639992661,54.837698000129535],[-121.64497100067425,54.844018999722401],[-121.64433199990404,54.85052099970747],[-121.64806300066726,54.856746000413722],[-121.65771000069005,54.855925999653785],[-121.66287500018613,54.857889999833588],[-121.67501699975095,54.862508999780395],[-121.68947100036716,54.871088999750768],[-121.69734799997052,54.877432999967851],[-121.7271070000947,54.885030999979612],[-121.74269300029457,54.879142000052951],[-121.73729699925735,54.869077999918112],[-121.75993299977469,54.856792999960909],[-121.76470500064788,54.851733999962399],[-121.77365600055495,54.850108999846988],[-121.77769400023506,54.841604000061245],[-121.78454500031494,54.837596999629035],[-121.79443100002717,54.837690999753839],[-121.79967899941703,54.853456000112317],[-121.805240000479,54.857148000019542],[-121.83219000060757,54.860884000099944],[-121.86792999978971,54.867355999800964],[-121.87282299970255,54.871577999660062],[-121.87229499948035,54.883389000237116],[-122.03362599955175,54.881704000271107],[-122.33981800027121,54.762413999727109],[-122.42875700077866,54.758028999849898],[-122.46688300012049,54.762052000331806],[-122.56242099943232,54.743219999678992],[-122.66270499971422,54.764107000323534],[-122.79560400000403,54.750164000232402],[-122.91967099967725,54.75528500044048],[-123.23222299991568,54.7429809998998],[-123.35208999953656,54.70588699957213],[-123.48145099966302,54.709322000361375],[-123.65709799993449,54.735424999862296],[-123.79571700013268,54.692655999691915],[-123.79418500022204,54.691162000093733],[-123.79287699932144,54.689525000325894],[-123.79208000057099,54.687656999872473],[-123.79094000035587,54.684904000280994],[-123.7895270006414,54.68161400035072],[-123.79050999993309,54.679695000364696],[-123.79308500065662,54.674693000121401],[-123.7783100003923,54.659083999959066],[-123.77999100064221,54.650142000376562],[-123.78616100065373,54.627184000086061],[-123.77757200005483,54.618432999772018],[-123.77846599982774,54.613187000441719],[-123.80806000068496,54.605139000082687],[-123.80772900051112,54.602946000322319],[-123.77987999944735,54.592571999839713],[-122.98045000020349,54.429384999837922],[-122.8560800001143,54.384758999620615],[-122.82833099977292,54.415989000114742],[-122.7475790002958,54.48717199984241],[-122.74332299927477,54.489665999661405],[-122.73758699970143,54.492050000246373],[-122.73268400025997,54.516028999665522],[-122.70029799936606,54.515980999709058],[-122.69643399968085,54.515973000169538],[-122.69312199991708,54.515971000053398],[-122.63292099925152,54.515940999756211],[-122.63254600057583,54.510013999740792],[-122.61173900024269,54.49687700033833],[-122.60877900055984,54.49520100007858],[-122.35971299999744,54.347546999961921],[-122.36118399987323,54.276841999929381],[-121.81741199937643,54.436538000378071],[-121.52410299939137,54.651428999714106],[-121.52370600060944,54.664821000109043],[-121.5198460007298,54.670926999611915],[-121.51944800062537,54.684319999928832],[-121.49863800052125,54.689386999987732],[-121.48652199981682,54.694574000268801],[-121.47968999983664,54.705854999785849],[-121.47494099964558,54.7228339998302]]],[[[-122.77705799942493,53.98205900012978],[-122.77779700055598,53.982661000261984],[-122.7779899996345,53.982836999733557],[-122.77812299928868,53.982958000438202],[-122.77867900002093,53.983522999640648],[-122.77899500074849,53.984039999809355],[-122.77945000021683,53.985379000124048],[-122.77973400003296,53.985898000380793],[-122.78012100007642,53.986327999982386],[-122.78050600075515,53.986649000380083],[-122.78100500063371,53.986974000209798],[-122.78139899961511,53.987171000064706],[-122.78340800069418,53.987947000164574],[-122.78489800058107,53.988525000383071],[-122.78673999957134,53.989493000283744],[-122.78684899945559,53.989553999828935],[-122.79640799936587,53.994821000324727],[-122.79719999971059,53.995316000117121],[-122.79781400058602,53.995684000444193],[-122.79844200045926,53.996172000197937],[-122.79916500004414,53.996814000144781],[-122.7996150002934,53.997333999670872],[-122.79998300072316,53.997738000231735],[-122.80037799958343,53.998351999984081],[-122.80075499999906,53.999140999595305],[-122.80089600010322,53.999644000343025],[-122.80090999941341,53.999811999940171],[-122.80101800052303,54.000372000331922],[-122.80103799964253,54.003589999551423],[-122.80119600071686,54.00359099976059],[-122.80162500047724,54.003714000017624],[-122.80253100039464,54.004154999571114],[-122.8033030002444,54.004530999775824],[-122.80521499968498,54.005467999895437],[-122.80686500059454,54.006270999898618],[-122.8075500006064,54.006605000344358],[-122.81346700070416,54.009434000254757],[-122.81399800031045,54.009557000237201],[-122.81452900058351,54.009603000178181],[-122.81652400044177,54.009467999814291],[-122.81942799946282,54.009265999975071],[-122.82258399930018,54.009029999771876],[-122.8256969996379,54.008795999813472],[-122.82676700065895,54.008828000173587],[-122.82754800058913,54.009033999898186],[-122.82810799990409,54.009308000395606],[-122.8300239998082,54.010906000377922],[-122.8303050007143,54.011107999828369],[-122.83076200046334,54.011340000081461],[-122.83118900060617,54.011470000284667],[-122.83192699982604,54.01162999988339],[-122.83257799975983,54.011637999683302],[-122.83312000027786,54.01160699985131],[-122.83369999932823,54.011572000190867],[-122.83422400076059,54.01148300024996],[-122.83480299952976,54.011319999732123],[-122.83557199979053,54.011012000090837],[-122.8362830002421,54.010778000322254],[-122.83681500005302,54.010670000429592],[-122.83739400056135,54.010630999952213],[-122.83791299984867,54.010630000288842],[-122.84117000061009,54.010636999683406],[-122.84403300027412,54.010627000097159],[-122.84699099935679,54.010630000363442],[-122.85006000034711,54.010629000210798],[-122.85016500055706,53.981294999922817],[-122.8257979993611,53.981304999684824],[-122.82573199971802,53.967609000319193],[-122.81273299997459,53.967609000405908],[-122.81269300001337,53.962122999964294],[-122.81179000031207,53.962965999675689],[-122.81093500002585,53.963377999675373],[-122.80951600032348,53.963779999565219],[-122.80745599947076,53.964064999631269],[-122.80605400048658,53.964187999654577],[-122.80238000024268,53.964290000411232],[-122.80070199946759,53.964412999665456],[-122.79966499967522,53.964590999902882],[-122.79790900057931,53.965171999947792],[-122.79644199938309,53.966032999599818],[-122.79530700020524,53.967343000079843],[-122.79495200031317,53.968294999757283],[-122.79496500075513,53.968790000028285],[-122.79503899962377,53.969320000152436],[-122.79549100050993,53.97023799997617],[-122.79761499945081,53.972487999953032],[-122.79976700037689,53.975142999754219],[-122.80159000063585,53.977952000054984],[-122.8018289996962,53.97834099993748],[-122.80101299990271,53.978338999970923],[-122.80101000038967,53.980750000441979],[-122.8010129992996,53.981327000260627],[-122.800041999467,53.981971000242297],[-122.795928000202,53.981968999647066],[-122.7955349994688,53.981477000210404],[-122.79521900014065,53.981100999904029],[-122.79446299931327,53.981226000130597],[-122.79329900075517,53.981236000037811],[-122.7926390006613,53.981192000388155],[-122.79213700038481,53.981092000440192],[-122.79122099947533,53.980816999673735],[-122.79077199937801,53.98122999955298],[-122.79065799949541,53.981292000441918],[-122.79059100043077,53.981303000033193],[-122.79048500039841,53.981322000097862],[-122.78962999953791,53.981259000082211],[-122.78794500069576,53.981231000122868],[-122.78728499974314,53.981178999638374],[-122.78637099965653,53.98097300019186],[-122.78540000013325,53.980701999797404],[-122.78519100056337,53.980644000073255],[-122.78457899963209,53.980437999675544],[-122.78320800006047,53.981488000023809],[-122.78031200069087,53.981666000372527],[-122.78014999927852,53.98181299980768],[-122.77983800028079,53.981823000307529],[-122.77749099940021,53.981935999641458],[-122.77719400016483,53.98202300027733],[-122.77705799942493,53.98205900012978]]],[[[-122.76081099960953,54.039263999619806],[-122.76821500074909,54.034001999559607],[-122.77639900070024,54.028176000143127],[-122.77716599977916,54.027611000413636],[-122.79035700027913,54.018277999914346],[-122.79447699928139,54.015354999608199],[-122.79730200055251,54.013370000089239],[-122.79864999998976,54.012370999773353],[-122.79905700021251,54.012014000301107],[-122.79966600059204,54.011349000314091],[-122.79984500007266,54.011112999811715],[-122.79991800005429,54.011076000325502],[-122.80023999970454,54.01066600004463],[-122.80047200011977,54.010324999894706],[-122.80060199977595,54.010129999777931],[-122.80081500071186,54.009674999705979],[-122.80105899964076,54.008793999714207],[-122.80102100057579,54.008730000351342],[-122.80108400018486,54.007179999891001],[-122.80109399999024,54.006639000043393],[-122.8007270003253,54.006638000386125],[-122.76086300031322,54.006601999553268],[-122.76081099960953,54.039263999619806]]]]},"properties":{"OBJECTID":811,"SchoolName":"Heather Park Elementary"}},{"type":"Feature","id":812,"geometry":{"type":"Polygon","coordinates":[[[-122.89937336802231,53.978885198274973],[-122.89937138892937,53.978484013003801],[-122.89937097432015,53.978399806310705],[-122.89919510805251,53.978361370237138],[-122.89903651459537,53.978305332027546],[-122.89882568903066,53.978219095957392],[-122.89875113165294,53.978188599052899],[-122.89862877314101,53.97813855613105],[-122.89846575026274,53.978071883374909],[-122.89786765037491,53.977920738441853],[-122.89744368242305,53.977831306747909],[-122.89722702007471,53.97776721729447],[-122.89663466123855,53.97764104865238],[-122.89578102523882,53.977490760799384],[-122.89534157374744,53.977377400287409],[-122.89527619680536,53.977363717592816],[-122.89527636752351,53.977295642960613],[-122.89527759469451,53.97680629472665],[-122.89527315184924,53.976494327844478],[-122.89525599997764,53.976485999934233],[-122.89134500062758,53.976485000070504],[-122.88889099968416,53.976559999665547],[-122.88643800001282,53.977007000323482],[-122.88317999979097,53.978001999991257],[-122.88182599946107,53.978375000298335],[-122.87903400002172,53.978424999695477],[-122.87615799985646,53.977729000065473],[-122.8734500005859,53.976435000264161],[-122.87116700000519,53.974306999745139],[-122.86998299942429,53.973236999917972],[-122.8686879992818,53.971811999556103],[-122.86720100043203,53.970823999777863],[-122.86425399964293,53.970143999923856],[-122.86075500063986,53.969917000289556],[-122.85739500018032,53.969300999634896],[-122.85362099954312,53.967940000202681],[-122.85048099984289,53.966013000139853],[-122.84610200027365,53.962724000158481],[-122.84552299973105,53.961670999673139],[-122.84128099966881,53.959856999963655],[-122.8389129997544,53.958859999796665],[-122.83632399945611,53.957660999963579],[-122.83323900025732,53.956369999692249],[-122.83092499978628,53.954814000292281],[-122.82762000009312,53.952804999740152],[-122.82497599931129,53.950406000016272],[-122.82056900074377,53.94781199978928],[-122.81741200003128,53.946022999711097],[-122.81531300025988,53.945417999605901],[-122.8116439999486,53.945349000423079],[-122.80878000041248,53.944571000437236],[-122.80508200042384,53.944034999672361],[-122.80205900052972,53.942236999795369],[-122.79913900040705,53.940525999678442],[-122.79423599989757,53.938384999994533],[-122.79242600066364,53.936617000015502],[-122.79005000075918,53.934589999711918],[-122.78900300057738,53.932384000220026],[-122.78801100035609,53.930372999748485],[-122.78602800004184,53.928914000350538],[-122.78338399944057,53.927746000394656],[-122.78053499935318,53.927027999898698],[-122.7800229996773,53.926935999958012],[-122.77666300026706,53.926480999772942],[-122.77225600064462,53.926967999849964],[-122.76851000049365,53.927195000449665],[-122.76685599939751,53.927152999805763],[-122.76399300010689,53.927162999815366],[-122.75980599931088,53.927356999899047],[-122.75418699947636,53.927356999573448],[-122.75068399987448,53.927352000194816],[-122.74630900075763,53.927063999936351],[-122.74289399970628,53.927032000398789],[-122.7390379995057,53.926934999967415],[-122.73441000000295,53.926967000358971],[-122.73143500002091,53.926935000006587],[-122.73019500027755,53.927420999577627],[-122.72643300045766,53.92818899962613],[-122.72407900030227,53.92717700005916],[-122.72281299982291,53.926415999694662],[-122.72123800048448,53.926271999652251],[-122.71774499955792,53.925798999833418],[-122.71606799999293,53.925183999878797],[-122.71551000008041,53.924395999990629],[-122.71529799960322,53.923449000358133],[-122.71275999946549,53.920510000036678],[-122.71259500040561,53.918571999607927],[-122.70940000052136,53.918053999562282],[-122.70565399945238,53.917405999697827],[-122.70190800021636,53.916497999638629],[-122.69716999973679,53.915784999699966],[-122.6927630004362,53.915137000142259],[-122.68791500073183,53.914617999969806],[-122.68257099928617,53.914536999702413],[-122.6775580005508,53.91551699992764],[-122.67315099972321,53.917917999632273],[-122.67017599961572,53.919798999764708],[-122.66764200019205,53.921615999752703],[-122.66478600044789,53.924569999633064],[-122.66499799984105,53.927066999651011],[-122.66565899993732,53.928689000058689],[-122.66835099932753,53.929420999892834],[-122.67260000014893,53.929921000415035],[-122.67733799971488,53.929725999778441],[-122.68416900028502,53.929078000248502],[-122.68912699977859,53.929920999857472],[-122.69474600029807,53.930764999768819],[-122.69671100035119,53.931379999874345],[-122.75903000009568,53.931413000117928],[-122.75904000062056,53.933328000185099],[-122.75827399985424,53.934170999974448],[-122.75799500054373,53.935051999583457],[-122.75809599952704,53.935906000238674],[-122.75895900016208,53.937084999936872],[-122.75899199968671,53.937202999975547],[-122.75958600022923,53.937952000259202],[-122.75985999966271,53.938289999606951],[-122.76032899943107,53.939114000203659],[-122.76055800043443,53.939668000168801],[-122.76076400023018,53.940619999583546],[-122.76096599994969,53.942611000349892],[-122.76119499983473,53.942707999800625],[-122.76896400028203,53.942708000162213],[-122.77726800004321,53.94270399990706],[-122.7771579997964,53.951332999780753],[-122.78839599979766,53.951268999663228],[-122.78842100016772,53.962056000094798],[-122.79530700020524,53.967343000079843],[-122.79644199938309,53.966032999599818],[-122.79790900057931,53.965171999947792],[-122.79966499967522,53.964590999902882],[-122.80070199946759,53.964412999665456],[-122.80238000024268,53.964290000411232],[-122.80605400048658,53.964187999654577],[-122.80745599947076,53.964064999631269],[-122.80951600032348,53.963779999565219],[-122.81093500002585,53.963377999675373],[-122.81179000031207,53.962965999675689],[-122.81269300001337,53.962122999964294],[-122.81273299997459,53.967609000405908],[-122.82573199971802,53.967609000319193],[-122.8257979993611,53.981304999684824],[-122.85016500055706,53.981294999922817],[-122.8993854040492,53.981325572974228],[-122.89937336802231,53.978885198274973]]]},"properties":{"OBJECTID":812,"SchoolName":"Edgewood Elementary"}},{"type":"Feature","id":813,"geometry":{"type":"Polygon","coordinates":[[[-122.69671100035119,53.931379999874345],[-122.69918199928709,53.932883000426557],[-122.70000899965177,53.934148000159297],[-122.7008899999241,53.935802000014824],[-122.70105600000365,53.937618000314593],[-122.70072499982911,53.939434000282496],[-122.70127599968177,53.940471999891145],[-122.70252299996135,53.942041999739175],[-122.70320500072889,53.943293000071698],[-122.70279199945533,53.944720000406797],[-122.70270000016055,53.946735000162626],[-122.73292499929495,53.946693999577981],[-122.73287299994266,53.957562999859789],[-122.74980899988509,53.957568999582556],[-122.74823799938137,53.959476999591921],[-122.74744000065054,53.960443999850632],[-122.74620999980817,53.961874999997256],[-122.75421699998492,53.963626000332731],[-122.75423799973984,53.967087000223607],[-122.74968499930452,53.967086999781046],[-122.74967900009952,53.982040000280087],[-122.77705799942493,53.98205900012978],[-122.77719400016483,53.98202300027733],[-122.77749099940021,53.981935999641458],[-122.77983800028079,53.981823000307529],[-122.78014999927852,53.98181299980768],[-122.78031200069087,53.981666000372527],[-122.78320800006047,53.981488000023809],[-122.78457899963209,53.980437999675544],[-122.78519100056337,53.980644000073255],[-122.78540000013325,53.980701999797404],[-122.78637099965653,53.98097300019186],[-122.78728499974314,53.981178999638374],[-122.78794500069576,53.981231000122868],[-122.78962999953791,53.981259000082211],[-122.79048500039841,53.981322000097862],[-122.79059100043077,53.981303000033193],[-122.79065799949541,53.981292000441918],[-122.79077199937801,53.98122999955298],[-122.79122099947533,53.980816999673735],[-122.79213700038481,53.981092000440192],[-122.7926390006613,53.981192000388155],[-122.79329900075517,53.981236000037811],[-122.79446299931327,53.981226000130597],[-122.79521900014065,53.981100999904029],[-122.7955349994688,53.981477000210404],[-122.795928000202,53.981968999647066],[-122.800041999467,53.981971000242297],[-122.8010129992996,53.981327000260627],[-122.80101000038967,53.980750000441979],[-122.80101299990271,53.978338999970923],[-122.8018289996962,53.97834099993748],[-122.80159000063585,53.977952000054984],[-122.79976700037689,53.975142999754219],[-122.79761499945081,53.972487999953032],[-122.79549100050993,53.97023799997617],[-122.79503899962377,53.969320000152436],[-122.79496500075513,53.968790000028285],[-122.79495200031317,53.968294999757283],[-122.79530700020524,53.967343000079843],[-122.78842100016772,53.962056000094798],[-122.78839599979766,53.951268999663228],[-122.7771579997964,53.951332999780753],[-122.77726800004321,53.94270399990706],[-122.76896400028203,53.942708000162213],[-122.76119499983473,53.942707999800625],[-122.76096599994969,53.942611000349892],[-122.76076400023018,53.940619999583546],[-122.76055800043443,53.939668000168801],[-122.76032899943107,53.939114000203659],[-122.75985999966271,53.938289999606951],[-122.75958600022923,53.937952000259202],[-122.75899199968671,53.937202999975547],[-122.75895900016208,53.937084999936872],[-122.75809599952704,53.935906000238674],[-122.75799500054373,53.935051999583457],[-122.75827399985424,53.934170999974448],[-122.75904000062056,53.933328000185099],[-122.75903000009568,53.931413000117928],[-122.69671100035119,53.931379999874345]]]},"properties":{"OBJECTID":813,"SchoolName":"Hart Highlands Elementary"}},{"type":"Feature","id":814,"geometry":{"type":"Polygon","coordinates":[[[-122.78170000022908,53.910286000055748],[-122.78169199931909,53.910348999988237],[-122.78178700008523,53.910350999932241],[-122.78223899958665,53.910352999670749],[-122.78469899993323,53.910323999793171],[-122.78530599996601,53.910308999703268],[-122.78917900042218,53.910312999801917],[-122.79066000075397,53.910315000198821],[-122.7910960001974,53.910314999979228],[-122.79501500000629,53.910352999795087],[-122.79642999934333,53.910361000139758],[-122.79734399941439,53.910354999707153],[-122.79746800068536,53.910357000230782],[-122.79756799990048,53.91035899971498],[-122.80065300050805,53.910382999592684],[-122.80447899934113,53.910345000387331],[-122.80694700052568,53.910353999755266],[-122.80714000028928,53.910358000374636],[-122.81146799944609,53.910365000012305],[-122.81169200059351,53.910358999615632],[-122.8125050005667,53.910343999751476],[-122.81306000022659,53.910334999717449],[-122.81370199960942,53.910266999626707],[-122.81429799977786,53.910121000233652],[-122.81453599924694,53.910055999630735],[-122.8148599998383,53.909898999892178],[-122.81518400013078,53.909716000391889],[-122.81551899975368,53.909433000387352],[-122.81574499980253,53.909148999944129],[-122.81585499927124,53.90890400022775],[-122.81590699994963,53.908719999811332],[-122.81590099992124,53.908355000393357],[-122.81584899959593,53.908158000138769],[-122.81567000037589,53.907776000358069],[-122.81480499927591,53.906342000442415],[-122.81455099956031,53.905755000030972],[-122.81421500027636,53.904943999903594],[-122.81362100037366,53.903116999741592],[-122.81313499939674,53.902115000282407],[-122.81183900010306,53.899686999700549],[-122.81136200033359,53.898945999843761],[-122.81031300035224,53.897656999867657],[-122.80973600058618,53.896906999945656],[-122.80925000053907,53.896101999821582],[-122.80878399969509,53.894955000251649],[-122.80873599952763,53.894950999595615],[-122.80284300046277,53.894959999867858],[-122.80110900059474,53.894963000181207],[-122.80007400067886,53.894935000016794],[-122.79963299945983,53.89494300039496],[-122.79821800032197,53.894939999690934],[-122.7974100005807,53.895236000188518],[-122.79560900046617,53.896311000188348],[-122.79396599991443,53.897209000048306],[-122.79348099969042,53.897440000211475],[-122.79108699962097,53.898868000047344],[-122.79092200051177,53.898964000434887],[-122.79000399931428,53.899478000051751],[-122.78957799954468,53.899562999699889],[-122.78883399975241,53.899548999665456],[-122.78694499954096,53.899562000290217],[-122.78577900027815,53.899567999654771],[-122.78231999987378,53.899556000076487],[-122.78222700014716,53.899556999889043],[-122.78214200018617,53.899557000288389],[-122.7800109993094,53.899554000168386],[-122.77980299989542,53.899567999840222],[-122.77929700028265,53.899674999792957],[-122.77885700012,53.899808000389847],[-122.77854600032512,53.899918999936432],[-122.7784719995683,53.899946999742156],[-122.7785659997337,53.899973999881972],[-122.77888699955732,53.900104999615266],[-122.77949599975267,53.900342000244272],[-122.7800029993856,53.900600000341498],[-122.78050900000582,53.900947000086724],[-122.78098100034289,53.901370000034049],[-122.78132999966475,53.901809999814525],[-122.78164499986173,53.902511000125813],[-122.78169200034314,53.902744999575923],[-122.78170499997661,53.903593999803221],[-122.78170399929846,53.907282000382835],[-122.78170000022908,53.910286000055748]]]},"properties":{"OBJECTID":814,"SchoolName":"Pinewood Elementary"}},{"type":"Feature","id":815,"geometry":{"type":"Polygon","coordinates":[[[-122.77150400009485,53.905039999788137],[-122.76696099935207,53.905043000203683],[-122.76695400042455,53.902264000075213],[-122.76596199991121,53.902263000015061],[-122.76584599933794,53.90226099961172],[-122.76356899953954,53.904075999664705],[-122.76263900072369,53.904809000155552],[-122.76218999931318,53.905070999742456],[-122.76143100073365,53.905296999655739],[-122.76084399938799,53.905379999988845],[-122.76057700012352,53.905376000314277],[-122.76038000043296,53.905372999912728],[-122.76019300058348,53.905415000025414],[-122.76036699995349,53.905451999899604],[-122.76057599930814,53.905451999758675],[-122.76082299953357,53.905454999674276],[-122.76193599930292,53.90543399971331],[-122.76292200045515,53.905425000305762],[-122.76325400019927,53.905423999730623],[-122.76375200028376,53.905439000167398],[-122.76499999971067,53.905440999657777],[-122.76568399937614,53.905577000287501],[-122.76716499927464,53.906337999751933],[-122.76721199981837,53.906363000445438],[-122.76606499945835,53.907140999703032],[-122.7649770006763,53.907862999843161],[-122.76456199933406,53.908144000021288],[-122.76376299975529,53.908694999912605],[-122.76369999971962,53.90873799985782],[-122.76282200074527,53.909353000263692],[-122.76254700051135,53.909548999981332],[-122.76247799991066,53.909595000219461],[-122.76227599965964,53.909766999908264],[-122.7619890002774,53.910087999630278],[-122.76195300013985,53.910127000339195],[-122.76043999927784,53.909714000401621],[-122.76030199995168,53.909674999890136],[-122.76001499979975,53.909598999620471],[-122.75965600015331,53.909566000049836],[-122.75925700007525,53.909613000297085],[-122.75497500021419,53.910494000071488],[-122.7549429993457,53.910563000056875],[-122.75468300042573,53.910936999672217],[-122.75411599977942,53.911706000433405],[-122.75348699950986,53.912460999887408],[-122.75320100033311,53.912832999602081],[-122.75288899973918,53.913239000028653],[-122.75256900003558,53.913626000331305],[-122.75224200053411,53.914022999831296],[-122.75195700024007,53.914371000415152],[-122.75161100012741,53.914792000206226],[-122.75128899987507,53.915184999610524],[-122.75098200073518,53.915577999577508],[-122.75068400026662,53.9159279996191],[-122.75036400011057,53.916322999584366],[-122.75004199949791,53.916719000277979],[-122.7497399997992,53.917122000331538],[-122.74943700071258,53.917501999749469],[-122.7491040007492,53.91787499961999],[-122.74876699965954,53.918283999971266],[-122.7484670003556,53.918673999687726],[-122.74785400067263,53.9194420001106],[-122.74746299997371,53.919851000179982],[-122.74588900063171,53.919423999783959],[-122.74441399987374,53.919015999649723],[-122.74289500070628,53.918571999601284],[-122.74110099979892,53.918056000009322],[-122.73936800048344,53.917594000197482],[-122.73783700041645,53.917158999553045],[-122.73480899949158,53.916299000349738],[-122.73168999984001,53.915421999855809],[-122.72794299977708,53.914363999741248],[-122.72762900035886,53.914267999980524],[-122.7269659997412,53.914025000051105],[-122.72688900049252,53.913980999991551],[-122.72635200042352,53.913729999726435],[-122.72578399947555,53.913383999556984],[-122.72453599931261,53.911712999552769],[-122.72114800062353,53.914064999920306],[-122.71658900046255,53.917172999822569],[-122.71259500040561,53.918571999607927],[-122.71275999946549,53.920510000036678],[-122.71529799960322,53.923449000358133],[-122.71551000008041,53.924395999990629],[-122.71606799999293,53.925183999878797],[-122.71774499955792,53.925798999833418],[-122.72123800048448,53.926271999652251],[-122.72281299982291,53.926415999694662],[-122.72407900030227,53.92717700005916],[-122.72643300045766,53.92818899962613],[-122.73019500027755,53.927420999577627],[-122.73143500002091,53.926935000006587],[-122.73441000000295,53.926967000358971],[-122.7390379995057,53.926934999967415],[-122.74289399970628,53.927032000398789],[-122.74630900075763,53.927063999936351],[-122.75068399987448,53.927352000194816],[-122.75418699947636,53.927356999573448],[-122.75980599931088,53.927356999899047],[-122.76399300010689,53.927162999815366],[-122.76685599939751,53.927152999805763],[-122.76851000049365,53.927195000449665],[-122.77225600064462,53.926967999849964],[-122.77666300026706,53.926480999772942],[-122.7800229996773,53.926935999958012],[-122.78053499935318,53.927027999898698],[-122.78076799985124,53.926416999973199],[-122.78130800000643,53.925207999753447],[-122.78164800001733,53.924087999849547],[-122.78165899948604,53.923632999707209],[-122.78167099985019,53.923047999944274],[-122.7816779993134,53.920657000350559],[-122.78169199931068,53.920566999623027],[-122.78167700038634,53.919162999926975],[-122.78168000070626,53.916472999998049],[-122.78168300040116,53.915414000288443],[-122.78168500046709,53.914403000241322],[-122.78167799964707,53.913159999825979],[-122.78170200028768,53.911465999982163],[-122.78169699951059,53.910417999724302],[-122.78169199931909,53.910348999988237],[-122.78170000022908,53.910286000055748],[-122.78170399929846,53.907282000382835],[-122.78170499997661,53.903593999803221],[-122.78158500070393,53.903595000371084],[-122.78118000058275,53.903593000175988],[-122.78118000022587,53.903199000366605],[-122.78084300071468,53.902989999739575],[-122.78049300065143,53.902999000139523],[-122.78024899955241,53.903078999882446],[-122.77956100052607,53.903634999961788],[-122.77832500058075,53.904785999731018],[-122.77795099952664,53.904975000363535],[-122.77751100067213,53.905084999958717],[-122.77680900033833,53.905113000129653],[-122.77451199928862,53.904997999774835],[-122.77411800039479,53.905009999862386],[-122.77188600075355,53.905397999653445],[-122.77151400071688,53.905354000388598],[-122.77150400009485,53.905039999788137]]]},"properties":{"OBJECTID":815,"SchoolName":"Harwin Elementary"}},{"type":"Feature","id":816,"geometry":{"type":"Polygon","coordinates":[[[-122.72644399994263,53.90928299980196],[-122.72540400060208,53.910893999862871],[-122.72453599931261,53.911712999552769],[-122.72578399947555,53.913383999556984],[-122.72635200042352,53.913729999726435],[-122.72688900049252,53.913980999991551],[-122.7269659997412,53.914025000051105],[-122.72762900035886,53.914267999980524],[-122.72794299977708,53.914363999741248],[-122.73168999984001,53.915421999855809],[-122.73480899949158,53.916299000349738],[-122.73783700041645,53.917158999553045],[-122.73936800048344,53.917594000197482],[-122.74110099979892,53.918056000009322],[-122.74289500070628,53.918571999601284],[-122.74441399987374,53.919015999649723],[-122.74588900063171,53.919423999783959],[-122.74746299997371,53.919851000179982],[-122.74785400067263,53.9194420001106],[-122.7484670003556,53.918673999687726],[-122.74876699965954,53.918283999971266],[-122.7491040007492,53.91787499961999],[-122.74943700071258,53.917501999749469],[-122.7497399997992,53.917122000331538],[-122.75004199949791,53.916719000277979],[-122.75036400011057,53.916322999584366],[-122.75068400026662,53.9159279996191],[-122.75098200073518,53.915577999577508],[-122.75128899987507,53.915184999610524],[-122.75161100012741,53.914792000206226],[-122.75195700024007,53.914371000415152],[-122.75224200053411,53.914022999831296],[-122.75256900003558,53.913626000331305],[-122.75288899973918,53.913239000028653],[-122.75320100033311,53.912832999602081],[-122.75348699950986,53.912460999887408],[-122.75411599977942,53.911706000433405],[-122.75468300042573,53.910936999672217],[-122.7549429993457,53.910563000056875],[-122.75497500021419,53.910494000071488],[-122.75925700007525,53.909613000297085],[-122.75965600015331,53.909566000049836],[-122.76001499979975,53.909598999620471],[-122.76030199995168,53.909674999890136],[-122.76043999927784,53.909714000401621],[-122.76195300013985,53.910127000339195],[-122.7619890002774,53.910087999630278],[-122.76227599965964,53.909766999908264],[-122.76247799991066,53.909595000219461],[-122.76254700051135,53.909548999981332],[-122.76282200074527,53.909353000263692],[-122.76369999971962,53.90873799985782],[-122.76376299975529,53.908694999912605],[-122.76456199933406,53.908144000021288],[-122.7649770006763,53.907862999843161],[-122.76606499945835,53.907140999703032],[-122.76721199981837,53.906363000445438],[-122.76716499927464,53.906337999751933],[-122.76568399937614,53.905577000287501],[-122.76499999971067,53.905440999657777],[-122.76375200028376,53.905439000167398],[-122.76325400019927,53.905423999730623],[-122.76292200045515,53.905425000305762],[-122.76193599930292,53.90543399971331],[-122.76082299953357,53.905454999674276],[-122.76057599930814,53.905451999758675],[-122.76036699995349,53.905451999899604],[-122.76019300058348,53.905415000025414],[-122.76038000043296,53.905372999912728],[-122.76057700012352,53.905376000314277],[-122.76084399938799,53.905379999988845],[-122.76143100073365,53.905296999655739],[-122.76218999931318,53.905070999742456],[-122.76263900072369,53.904809000155552],[-122.76356899953954,53.904075999664705],[-122.76584599933794,53.90226099961172],[-122.76541000049656,53.902253000359522],[-122.76057300016134,53.902259999881068],[-122.76059499966742,53.900668999945196],[-122.76060000075674,53.900348999712264],[-122.76001999983062,53.900339000309692],[-122.75980900021017,53.900248000016745],[-122.75923000059943,53.899347000188889],[-122.7577050004962,53.898245000434535],[-122.75655100050983,53.89778400001773],[-122.75582100036425,53.897684000025514],[-122.75521299954315,53.897700999753496],[-122.75515900059277,53.896441999631442],[-122.75517700025515,53.8960200001559],[-122.75516600036089,53.895256000036781],[-122.75515600016305,53.89440200040179],[-122.75515399925358,53.894056000240454],[-122.7551529995945,53.894006000086172],[-122.75399600044695,53.893794000100684],[-122.75272300002743,53.893511000233659],[-122.75226799925919,53.893434000434659],[-122.75137299928333,53.893162000332019],[-122.7508599996531,53.893136000303073],[-122.7506570004857,53.893145000217679],[-122.74963799995551,53.893330000286731],[-122.74943700027433,53.893336000282048],[-122.74942399976229,53.893590000342478],[-122.74938799932829,53.894407999899798],[-122.74939999947917,53.895021000041048],[-122.74743700007508,53.895032999748963],[-122.74746499947094,53.896311999838815],[-122.74746399958975,53.896390000064777],[-122.74746700036791,53.897230000004271],[-122.74543700037331,53.897229000154375],[-122.74541499929113,53.89844699993219],[-122.7454350006736,53.899229999956574],[-122.74467200051041,53.899678999859297],[-122.74433600015479,53.899875999625237],[-122.74354000009134,53.900213999956613],[-122.74322800073841,53.900329000049254],[-122.74293099940138,53.9003940001095],[-122.74281700002724,53.900453999592102],[-122.74281199931205,53.902201999642024],[-122.74281200050825,53.902208000095094],[-122.74241699943123,53.902473999958453],[-122.74184599953958,53.902473000190454],[-122.74141200058408,53.902210999989208],[-122.74079899926433,53.902561000346616],[-122.73316299964586,53.902438999946213],[-122.73206800070606,53.903696999664874],[-122.73033299974692,53.905467999556251],[-122.72941599944475,53.906483000156364],[-122.72861700043818,53.907235999652421],[-122.72788899966575,53.907920999807722],[-122.72644399994263,53.90928299980196]]]},"properties":{"OBJECTID":816,"SchoolName":"Ron Brent Elementary"}},{"type":"Feature","id":817,"geometry":{"type":"Polygon","coordinates":[[[-122.74318100014081,53.892340999657193],[-122.74033400073658,53.89337299959135],[-122.73830900046602,53.894244000382876],[-122.7366119999364,53.895211999901143],[-122.73529899973562,53.896276999750434],[-122.73409400054211,53.897825000438552],[-122.73294499976211,53.899405999842159],[-122.73305499937825,53.900825000389951],[-122.73316299964586,53.902438999946213],[-122.74079899926433,53.902561000346616],[-122.74141200058408,53.902210999989208],[-122.74184599953958,53.902473000190454],[-122.74241699943123,53.902473999958453],[-122.74281200050825,53.902208000095094],[-122.74281199931205,53.902201999642024],[-122.74281700002724,53.900453999592102],[-122.74293099940138,53.9003940001095],[-122.74322800073841,53.900329000049254],[-122.74354000009134,53.900213999956613],[-122.74433600015479,53.899875999625237],[-122.74467200051041,53.899678999859297],[-122.7454350006736,53.899229999956574],[-122.74541499929113,53.89844699993219],[-122.74543700037331,53.897229000154375],[-122.74746700036791,53.897230000004271],[-122.74746399958975,53.896390000064777],[-122.74746499947094,53.896311999838815],[-122.74743700007508,53.895032999748963],[-122.74939999947917,53.895021000041048],[-122.74938799932829,53.894407999899798],[-122.74942399976229,53.893590000342478],[-122.74943700027433,53.893336000282048],[-122.74963799995551,53.893330000286731],[-122.7506570004857,53.893145000217679],[-122.7508599996531,53.893136000303073],[-122.75137299928333,53.893162000332019],[-122.75226799925919,53.893434000434659],[-122.75272300002743,53.893511000233659],[-122.75399600044695,53.893794000100684],[-122.7551529995945,53.894006000086172],[-122.75515399925358,53.894056000240454],[-122.75515600016305,53.89440200040179],[-122.75516600036089,53.895256000036781],[-122.75517700025515,53.8960200001559],[-122.75515900059277,53.896441999631442],[-122.75521299954315,53.897700999753496],[-122.75582100036425,53.897684000025514],[-122.75655100050983,53.89778400001773],[-122.7577050004962,53.898245000434535],[-122.75923000059943,53.899347000188889],[-122.75980900021017,53.900248000016745],[-122.76001999983062,53.900339000309692],[-122.76060000075674,53.900348999712264],[-122.76059499966742,53.900668999945196],[-122.76057300016134,53.902259999881068],[-122.76541000049656,53.902253000359522],[-122.76584599933794,53.90226099961172],[-122.76830099988176,53.900323999582717],[-122.76867300030231,53.89971699969761],[-122.76875500057487,53.899199999957489],[-122.7687129993196,53.898750000340499],[-122.76821800071687,53.897774999865],[-122.7680029996345,53.897342000235106],[-122.76795100062648,53.897219999614535],[-122.76743699924894,53.896118000249601],[-122.76716899970545,53.895552999589448],[-122.76709599972142,53.894914999658837],[-122.76713700045566,53.894341999802471],[-122.76717900044132,53.893703999875456],[-122.76726099933745,53.888879999955002],[-122.76726299966934,53.888839000086449],[-122.76726299966504,53.888796000081093],[-122.76727500028336,53.888539000313571],[-122.76728600055408,53.887966000065958],[-122.76728999948874,53.887548999999858],[-122.76730000047404,53.8870090002628],[-122.76739799974231,53.886376000245747],[-122.76755300060996,53.885992999751522],[-122.76787599939757,53.885471000152911],[-122.76821800059291,53.885032999694033],[-122.76880700047353,53.884268999801122],[-122.76941299971966,53.883468999834903],[-122.76962699947248,53.882989999890867],[-122.76994600017974,53.880947999951452],[-122.77046100035672,53.877406000448786],[-122.7695540007095,53.877262999913938],[-122.76786699944952,53.877061999911312],[-122.76496599974602,53.876221000230409],[-122.76359600000653,53.875466999556437],[-122.76271100066322,53.874365000266351],[-122.75749299966078,53.874354000174705],[-122.75782199928192,53.87616099985825],[-122.75908099956381,53.87787099967634],[-122.75990200046316,53.879807000339099],[-122.75984700020756,53.881485000431155],[-122.7591899999499,53.883292000323124],[-122.75732899987956,53.885324000053458],[-122.75535899956495,53.886937999755901],[-122.75180099951658,53.888712000237312],[-122.74874099972519,53.889911000029066],[-122.74774299952809,53.890369999948717],[-122.74566999953319,53.891292999704945],[-122.74318100014081,53.892340999657193]]]},"properties":{"OBJECTID":817,"SchoolName":"Van Bien Elementary"}},{"type":"Feature","id":818,"geometry":{"type":"Polygon","coordinates":[[[-122.76985700070574,53.844712999908083],[-122.75052799946167,53.844713000048095],[-122.74764200064178,53.844712999995096],[-122.74693600025708,53.845355999642244],[-122.74672699944232,53.846672000219563],[-122.74609900021153,53.848111999627605],[-122.74554099963436,53.849592999624861],[-122.74512200064562,53.850950000011068],[-122.74498299949896,53.852883999713207],[-122.7451120005104,53.853557000217876],[-122.74526200040934,53.854406000072501],[-122.74519199960693,53.855763000226418],[-122.74533200026185,53.856749999731328],[-122.74595599997042,53.857962000327781],[-122.74675800011582,53.860738999708722],[-122.74766499951673,53.862342999743092],[-122.74828200030544,53.863642000004475],[-122.75571399942521,53.86200999993342],[-122.75445900057217,53.86119399960409],[-122.75347799942016,53.8595809996783],[-122.75346199949661,53.857966999682233],[-122.75460499949067,53.857961999820631],[-122.75833899945971,53.856890999748849],[-122.75861800049141,53.857180000179454],[-122.75883800022137,53.857397999896946],[-122.75934500068324,53.857740000406281],[-122.75949700051288,53.857841999795937],[-122.75994000045783,53.858042000443447],[-122.76042399973547,53.858206000146048],[-122.76107899996747,53.85835300028419],[-122.76251099970085,53.858536000189183],[-122.7629970000052,53.858617999912958],[-122.76334700032444,53.858655000022416],[-122.76336900064261,53.856908999917721],[-122.76929900015375,53.856911000305594],[-122.76965899926549,53.856637000287805],[-122.76987000029523,53.856424000200086],[-122.77012700006891,53.855970999817664],[-122.77044000029981,53.854298000397165],[-122.77053499998709,53.853839999879675],[-122.77085000032808,53.852112999970771],[-122.77050000047247,53.850080000371861],[-122.77041999965856,53.849752000416771],[-122.77045499954527,53.848943000275945],[-122.77052499982139,53.848584000251066],[-122.77068199960357,53.848286000168279],[-122.77106900035398,53.847704000192493],[-122.77117700016449,53.847568999855454],[-122.77145200018364,53.847237000321741],[-122.77152999929139,53.846805999837585],[-122.77143999986566,53.84664400004354],[-122.7710309996968,53.846454999949522],[-122.77047199972452,53.845716999948202],[-122.76985700070574,53.844712999908083]]]},"properties":{"OBJECTID":818,"SchoolName":"Malaspina Elementary"}},{"type":"Feature","id":819,"geometry":{"type":"Polygon","coordinates":[[[-122.88994796352752,53.876892909544267],[-122.86232699974563,53.876860999657616],[-122.8075989998935,53.876763999798932],[-122.80644300057293,53.876798000375331],[-122.80476700070619,53.874107999829192],[-122.80428799932344,53.873408000406627],[-122.80330300057695,53.872601000442856],[-122.80218599978338,53.872038999649774],[-122.80155299965307,53.871828999724272],[-122.80035599954368,53.871371000337682],[-122.79944099995083,53.870989000309812],[-122.79941000049065,53.862569999826292],[-122.79940899963316,53.862495999685038],[-122.79859299934326,53.862934999904162],[-122.79705500033343,53.863718999951011],[-122.79621800045359,53.864065999794434],[-122.79544599937171,53.864288999955235],[-122.79163499951345,53.865051000393869],[-122.78422400070207,53.866562999770338],[-122.78400700046008,53.866622000379948],[-122.78312999943583,53.866921000263083],[-122.78255100041299,53.86719599996804],[-122.78211099954663,53.867424000444778],[-122.78156999994448,53.867797000016239],[-122.78106599948802,53.868216999774681],[-122.78066099998526,53.868784000439113],[-122.78048100015411,53.869141999551509],[-122.78043900042482,53.869197999703424],[-122.78040799973365,53.869271000347069],[-122.77969300062723,53.870863000365475],[-122.77893500076028,53.872576999631853],[-122.7784729994311,53.873494000349112],[-122.77838999950919,53.873628000351303],[-122.77810200008442,53.873976000041786],[-122.77756099986139,53.874463999604856],[-122.77699899965152,53.87482599987996],[-122.7764190001247,53.875087999842066],[-122.77572600031235,53.87531199984074],[-122.77527599926961,53.875400999943707],[-122.77487199996493,53.875440999588278],[-122.77442300039131,53.875476999886374],[-122.77337900021355,53.875520999615873],[-122.77286499963769,53.875586000073568],[-122.77245099961537,53.875708999566832],[-122.77214799976865,53.875819999808279],[-122.77193500061195,53.875914999776199],[-122.77158800032899,53.87613200004882],[-122.77122600044595,53.876444000380808],[-122.77079099929485,53.876929999766183],[-122.77058799990807,53.877417999694735],[-122.77046100035672,53.877406000448786],[-122.76994600017974,53.880947999951452],[-122.76962699947248,53.882989999890867],[-122.76941299971966,53.883468999834903],[-122.76880700047353,53.884268999801122],[-122.76821800059291,53.885032999694033],[-122.76787599939757,53.885471000152911],[-122.76755300060996,53.885992999751522],[-122.76739799974231,53.886376000245747],[-122.76730000047404,53.8870090002628],[-122.76728999948874,53.887548999999858],[-122.76728600055408,53.887966000065958],[-122.76727500028336,53.888539000313571],[-122.76726299966504,53.888796000081093],[-122.76726299966934,53.888839000086449],[-122.7674389996138,53.888838999598889],[-122.76986000042352,53.888854000360745],[-122.77018500016671,53.88885500042808],[-122.7708039999461,53.888760000215974],[-122.77151499973726,53.888658000329144],[-122.77310299962278,53.888214999711501],[-122.77364100039711,53.888140000178844],[-122.77406500040078,53.888106999989319],[-122.77682099927155,53.888109999619843],[-122.77822400032078,53.888208000232382],[-122.77954099951867,53.888226999956785],[-122.77954400059804,53.888273999780353],[-122.77954299972258,53.889807000125124],[-122.7795409994699,53.890551999652168],[-122.77954100066768,53.890920999904424],[-122.78333599995487,53.890883999873878],[-122.78331599968833,53.889818000020199],[-122.78383299960575,53.889819000320685],[-122.78407800025519,53.889789999773626],[-122.78758300060032,53.889793000448215],[-122.78768200021682,53.889769000268892],[-122.78737800060276,53.889325000064822],[-122.78718700052387,53.888865000151583],[-122.78718699999691,53.888289999665943],[-122.78718999928624,53.888235999955576],[-122.78730700018305,53.888233999816705],[-122.78893500050846,53.888217999775492],[-122.78937499979078,53.888208000276812],[-122.79146399967071,53.888233000098317],[-122.80286099956277,53.888232999684277],[-122.80284300046277,53.894959999867858],[-122.80873599952763,53.894950999595615],[-122.80878399969509,53.894955000251649],[-122.80925000053907,53.896101999821582],[-122.80973600058618,53.896906999945656],[-122.81031300035224,53.897656999867657],[-122.81136200033359,53.898945999843761],[-122.81183900010306,53.899686999700549],[-122.81313499939674,53.902115000282407],[-122.81362100037366,53.903116999741592],[-122.8136879995016,53.903110000440151],[-122.83152599970722,53.903105000327479],[-122.83132199949941,53.900843000063276],[-122.83143300024568,53.896105999765567],[-122.83192399994559,53.894955999997492],[-122.84901000059624,53.894916000062281],[-122.84894000000661,53.902774999641871],[-122.88985648481348,53.902811106743528],[-122.88988328946613,53.897784166063495],[-122.88988464948206,53.896398655154584],[-122.8898933631035,53.88741057777316],[-122.88989728712441,53.883311929055651],[-122.88993583941661,53.878422517817086],[-122.88994796352752,53.876892909544267]]]},"properties":{"OBJECTID":819,"SchoolName":"Peden Hill Elementary"}},{"type":"Feature","id":820,"geometry":{"type":"Polygon","coordinates":[[[-122.88985648481348,53.902811106743528],[-122.84894000000661,53.902774999641871],[-122.84901000059624,53.894916000062281],[-122.83192399994559,53.894955999997492],[-122.83143300024568,53.896105999765567],[-122.83132199949941,53.900843000063276],[-122.83152599970722,53.903105000327479],[-122.8136879995016,53.903110000440151],[-122.81362100037366,53.903116999741592],[-122.81421500027636,53.904943999903594],[-122.81455099956031,53.905755000030972],[-122.81480499927591,53.906342000442415],[-122.81567000037589,53.907776000358069],[-122.81584899959593,53.908158000138769],[-122.81590099992124,53.908355000393357],[-122.81590699994963,53.908719999811332],[-122.81585499927124,53.90890400022775],[-122.81574499980253,53.909148999944129],[-122.81551899975368,53.909433000387352],[-122.81518400013078,53.909716000391889],[-122.8148599998383,53.909898999892178],[-122.81453599924694,53.910055999630735],[-122.81429799977786,53.910121000233652],[-122.81370199960942,53.910266999626707],[-122.81306000022659,53.910334999717449],[-122.8125050005667,53.910343999751476],[-122.81169200059351,53.910358999615632],[-122.81146799944609,53.910365000012305],[-122.80714000028928,53.910358000374636],[-122.80694700052568,53.910353999755266],[-122.80447899934113,53.910345000387331],[-122.80065300050805,53.910382999592684],[-122.79756799990048,53.91035899971498],[-122.79746800068536,53.910357000230782],[-122.79746800007047,53.910493999981156],[-122.79741500055508,53.911590999632899],[-122.7973630007281,53.913202000368166],[-122.7971010006555,53.914041999568596],[-122.79670699968349,53.914851999949512],[-122.79583100002378,53.916536999622927],[-122.79542399969776,53.917328999971339],[-122.79431700059051,53.919542000332491],[-122.79421900024404,53.920092999820348],[-122.79419200021142,53.920554999813014],[-122.79419499934075,53.920600000053788],[-122.79427500045681,53.920599999602281],[-122.79629199937128,53.920606999678327],[-122.79967800015798,53.920621999612038],[-122.80039299946337,53.920613999800409],[-122.8028320005948,53.920609999681481],[-122.80502199959923,53.92063100020539],[-122.80572500054402,53.920627000086533],[-122.80749599976933,53.920623999721421],[-122.80770399963087,53.920626000223749],[-122.81082699974286,53.920628000237336],[-122.81221899973775,53.920627000303881],[-122.81356799940353,53.920626000184065],[-122.81495900062093,53.920627000039723],[-122.81632299981059,53.920624999803337],[-122.81770999941276,53.920626000325193],[-122.81921700024957,53.920625000303438],[-122.81939700075708,53.920622999840148],[-122.81939700012485,53.920699000099027],[-122.81943999968843,53.923969000249038],[-122.81954099970521,53.92430599972068],[-122.81981299933742,53.924908000396968],[-122.82042499971728,53.926573999564852],[-122.82041400012679,53.926833999965872],[-122.82029500015739,53.927522000301295],[-122.81990199954198,53.929501999696249],[-122.8197169998658,53.930223999894359],[-122.81963499943673,53.930799999994377],[-122.81962800018124,53.931146000073369],[-122.81965999943205,53.932881999613315],[-122.81978100017754,53.933477000174754],[-122.81973699952646,53.933569999820158],[-122.82221999984087,53.937033000187832],[-122.82245999988115,53.937905999790161],[-122.82259200064236,53.938931000259529],[-122.82251299957348,53.939774999941875],[-122.83482899957193,53.939763999985814],[-122.83482199946317,53.952751999919386],[-122.84123100071034,53.952752999680293],[-122.84949100042422,53.952753000348906],[-122.84946400046152,53.958109000323766],[-122.86184799968474,53.958075999906761],[-122.86184799965754,53.964762000058357],[-122.88060399958201,53.964827000225867],[-122.88060399961915,53.968721000224335],[-122.89519259169147,53.968786707830212],[-122.89518761991312,53.96830760247493],[-122.89513716625937,53.961990171735557],[-122.88997325749644,53.961989868308152],[-122.8899338164717,53.959314927888023],[-122.88987913968593,53.955599235103961],[-122.88989485827031,53.950326901541011],[-122.88981280133382,53.941338822121928],[-122.88981182621865,53.941130748770327],[-122.88977037736693,53.932350765480678],[-122.88974361020269,53.926672994157052],[-122.88975796742318,53.923362713852086],[-122.88979701849539,53.914374704911722],[-122.88980638751907,53.912203829024797],[-122.88984274738577,53.905386688559481],[-122.88985648481348,53.902811106743528]]]},"properties":{"OBJECTID":820,"SchoolName":"Foothills Elementary"}},{"type":"Feature","id":824,"geometry":{"type":"Polygon","coordinates":[[[-122.77954100066768,53.890920999904424],[-122.7795409994699,53.890551999652168],[-122.77954299972258,53.889807000125124],[-122.77954400059804,53.888273999780353],[-122.77954099951867,53.888226999956785],[-122.77822400032078,53.888208000232382],[-122.77682099927155,53.888109999619843],[-122.77406500040078,53.888106999989319],[-122.77364100039711,53.888140000178844],[-122.77310299962278,53.888214999711501],[-122.77151499973726,53.888658000329144],[-122.7708039999461,53.888760000215974],[-122.77018500016671,53.88885500042808],[-122.76986000042352,53.888854000360745],[-122.7674389996138,53.888838999598889],[-122.76726299966934,53.888839000086449],[-122.76726099933745,53.888879999955002],[-122.76717900044132,53.893703999875456],[-122.76713700045566,53.894341999802471],[-122.76709599972142,53.894914999658837],[-122.76716899970545,53.895552999589448],[-122.76743699924894,53.896118000249601],[-122.76795100062648,53.897219999614535],[-122.7680029996345,53.897342000235106],[-122.76821800071687,53.897774999865],[-122.7687129993196,53.898750000340499],[-122.76875500057487,53.899199999957489],[-122.76867300030231,53.89971699969761],[-122.76830099988176,53.900323999582717],[-122.76584599933794,53.90226099961172],[-122.76596199991121,53.902263000015061],[-122.76695400042455,53.902264000075213],[-122.76696099935207,53.905043000203683],[-122.77150400009485,53.905039999788137],[-122.77151400071688,53.905354000388598],[-122.77188600075355,53.905397999653445],[-122.77411800039479,53.905009999862386],[-122.77451199928862,53.904997999774835],[-122.77680900033833,53.905113000129653],[-122.77751100067213,53.905084999958717],[-122.77795099952664,53.904975000363535],[-122.77832500058075,53.904785999731018],[-122.77956100052607,53.903634999961788],[-122.78024899955241,53.903078999882446],[-122.78049300065143,53.902999000139523],[-122.78084300071468,53.902989999739575],[-122.78118000022587,53.903199000366605],[-122.78118000058275,53.903593000175988],[-122.78158500070393,53.903595000371084],[-122.78170499997661,53.903593999803221],[-122.78169200034314,53.902744999575923],[-122.78164499986173,53.902511000125813],[-122.78132999966475,53.901809999814525],[-122.78098100034289,53.901370000034049],[-122.78050900000582,53.900947000086724],[-122.7800029993856,53.900600000341498],[-122.77949599975267,53.900342000244272],[-122.77888699955732,53.900104999615266],[-122.7785659997337,53.899973999881972],[-122.7784719995683,53.899946999742156],[-122.77854600032512,53.899918999936432],[-122.77885700012,53.899808000389847],[-122.77929700028265,53.899674999792957],[-122.77980299989542,53.899567999840222],[-122.7800109993094,53.899554000168386],[-122.78214200018617,53.899557000288389],[-122.78222700014716,53.899556999889043],[-122.78231999987378,53.899556000076487],[-122.78577900027815,53.899567999654771],[-122.78694499954096,53.899562000290217],[-122.78883399975241,53.899548999665456],[-122.78957799954468,53.899562999699889],[-122.79000399931428,53.899478000051751],[-122.79092200051177,53.898964000434887],[-122.79108699962097,53.898868000047344],[-122.79348099969042,53.897440000211475],[-122.79396599991443,53.897209000048306],[-122.79560900046617,53.896311000188348],[-122.7974100005807,53.895236000188518],[-122.79821800032197,53.894939999690934],[-122.79963299945983,53.89494300039496],[-122.80007400067886,53.894935000016794],[-122.80110900059474,53.894963000181207],[-122.80284300046277,53.894959999867858],[-122.80286099956277,53.888232999684277],[-122.79146399967071,53.888233000098317],[-122.78937499979078,53.888208000276812],[-122.78893500050846,53.888217999775492],[-122.78730700018305,53.888233999816705],[-122.78718999928624,53.888235999955576],[-122.78718699999691,53.888289999665943],[-122.78718700052387,53.888865000151583],[-122.78737800060276,53.889325000064822],[-122.78768200021682,53.889769000268892],[-122.78758300060032,53.889793000448215],[-122.78407800025519,53.889789999773626],[-122.78383299960575,53.889819000320685],[-122.78331599968833,53.889818000020199],[-122.78333599995487,53.890883999873878],[-122.77954100066768,53.890920999904424]]]},"properties":{"OBJECTID":824,"SchoolName":"Westwood Elementary"}},{"type":"Feature","id":826,"geometry":{"type":"Polygon","coordinates":[[[-122.77527599926961,53.875400999943707],[-122.77572600031235,53.87531199984074],[-122.7764190001247,53.875087999842066],[-122.77699899965152,53.87482599987996],[-122.77756099986139,53.874463999604856],[-122.77810200008442,53.873976000041786],[-122.77838999950919,53.873628000351303],[-122.7784729994311,53.873494000349112],[-122.77893500076028,53.872576999631853],[-122.77969300062723,53.870863000365475],[-122.78040799973365,53.869271000347069],[-122.78043900042482,53.869197999703424],[-122.7803180007444,53.869188999594741],[-122.77826499937218,53.868926000437625],[-122.77644499971295,53.86863599999517],[-122.77347199941944,53.868129000202046],[-122.77145400065974,53.867777999742437],[-122.77073199952186,53.867602999817422],[-122.77001799947766,53.867317000159318],[-122.76932500010463,53.866893000334635],[-122.76892700059344,53.866523999640506],[-122.76862800035761,53.866105999976689],[-122.7682570002635,53.865093999574881],[-122.76808700047535,53.864775000190129],[-122.7678259994146,53.864452999571327],[-122.76656600070324,53.863125999576241],[-122.76640900037853,53.862823000303308],[-122.76636499930898,53.862637999712419],[-122.76630400003093,53.860528000229664],[-122.76634200004453,53.859042000227895],[-122.76646400001454,53.858773000270304],[-122.76664699955495,53.858504999638534],[-122.76698699942636,53.858207000084001],[-122.76713499978997,53.858119999786695],[-122.76788900059428,53.857645000173861],[-122.76929900015375,53.856911000305594],[-122.76336900064261,53.856908999917721],[-122.76334700032444,53.858655000022416],[-122.7629970000052,53.858617999912958],[-122.76251099970085,53.858536000189183],[-122.76107899996747,53.85835300028419],[-122.76042399973547,53.858206000146048],[-122.75994000045783,53.858042000443447],[-122.75949700051288,53.857841999795937],[-122.75934500068324,53.857740000406281],[-122.75883800022137,53.857397999896946],[-122.75861800049141,53.857180000179454],[-122.75833899945971,53.856890999748849],[-122.75460499949067,53.857961999820631],[-122.75346199949661,53.857966999682233],[-122.75347799942016,53.8595809996783],[-122.75445900057217,53.86119399960409],[-122.75571399942521,53.86200999993342],[-122.74828200030544,53.863642000004475],[-122.74919999932365,53.865367000050206],[-122.75001400021384,53.866040000354147],[-122.75094299971717,53.867279999990217],[-122.75296600054875,53.868843000403238],[-122.75527000013328,53.871138999790965],[-122.755637000544,53.871501999947739],[-122.75650900061332,53.873023000447382],[-122.75749299966078,53.874354000174705],[-122.76271100066322,53.874365000266351],[-122.76359600000653,53.875466999556437],[-122.76496599974602,53.876221000230409],[-122.76786699944952,53.877061999911312],[-122.7695540007095,53.877262999913938],[-122.77046100035672,53.877406000448786],[-122.77058799990807,53.877417999694735],[-122.77079099929485,53.876929999766183],[-122.77122600044595,53.876444000380808],[-122.77158800032899,53.87613200004882],[-122.77193500061195,53.875914999776199],[-122.77214799976865,53.875819999808279],[-122.77245099961537,53.875708999566832],[-122.77286499963769,53.875586000073568],[-122.77337900021355,53.875520999615873],[-122.77442300039131,53.875476999886374],[-122.77487199996493,53.875440999588278],[-122.77527599926961,53.875400999943707]]]},"properties":{"OBJECTID":826,"SchoolName":"College Heights Elementary"}},{"type":"Feature","id":831,"geometry":{"type":"Polygon","coordinates":[[[-122.62425876733886,54.00558535374465],[-122.62432624973511,54.005658852544897],[-122.62458952318596,54.005745321345465],[-122.62477872485105,54.005770269436503],[-122.62827394608907,54.005770333571817],[-122.6338302437758,54.005770219249747],[-122.64449426260946,54.005769152761566],[-122.644495447791,54.005934444889817],[-122.64454173656931,54.012767496212795],[-122.65096269586607,54.012786309091972],[-122.66428914315436,54.012824259980199],[-122.6667721089176,54.012831167680012],[-122.66913056915543,54.012797235761788],[-122.68132273636681,54.012793500706927],[-122.69370455429316,54.012606737156659],[-122.69481156956209,54.012602362046266],[-122.70566897847122,54.012558698109061],[-122.71801548905511,54.012510544962161],[-122.72533300172859,54.012478051740679],[-122.72759575632064,54.012469538319408],[-122.72759660544253,54.012984368860394],[-122.72759696300115,54.013303441155067],[-122.72760026506903,54.021972299786292],[-122.72759995105648,54.025087590802727],[-122.72759943114741,54.030960207040557],[-122.7275984159196,54.039594058452693],[-122.75206709821586,54.039559693094418],[-122.75569484054157,54.039557994648014],[-122.76040283476017,54.039554129380136],[-122.76081099960953,54.039263999619806],[-122.76086300031322,54.006601999553268],[-122.8007270003253,54.006638000386125],[-122.80109399999024,54.006639000043393],[-122.80109400042262,54.006209482406867],[-122.80109997344175,54.006209579472355],[-122.80109999579828,54.006202970688172],[-122.80110038504287,54.006082294956848],[-122.80109400048087,54.006082433592844],[-122.80109400015868,54.005103000437643],[-122.80109699959533,54.004808000071556],[-122.80115899958797,54.004760000152189],[-122.80119600071686,54.00359099976059],[-122.80103799964253,54.003589999551423],[-122.80101800052303,54.000372000331922],[-122.80090999941341,53.999811999940171],[-122.80089600010322,53.999644000343025],[-122.80075499999906,53.999140999595305],[-122.80037799958343,53.998351999984081],[-122.79998300072316,53.997738000231735],[-122.7996150002934,53.997333999670872],[-122.79916500004414,53.996814000144781],[-122.79844200045926,53.996172000197937],[-122.79781400058602,53.995684000444193],[-122.79719999971059,53.995316000117121],[-122.79640799936587,53.994821000324727],[-122.78684899945559,53.989553999828935],[-122.78673999957134,53.989493000283744],[-122.78489800058107,53.988525000383071],[-122.78340800069418,53.987947000164574],[-122.78139899961511,53.987171000064706],[-122.78100500063371,53.986974000209798],[-122.78050600075515,53.986649000380083],[-122.78012100007642,53.986327999982386],[-122.77973400003296,53.985898000380793],[-122.77945000021683,53.985379000124048],[-122.77899500074849,53.984039999809355],[-122.77867900002093,53.983522999640648],[-122.77812299928868,53.982958000438202],[-122.7779899996345,53.982836999733557],[-122.77779700055598,53.982661000261984],[-122.77705799942493,53.98205900012978],[-122.74967900009952,53.982040000280087],[-122.74968499930452,53.967086999781046],[-122.75423799973984,53.967087000223607],[-122.75421699998492,53.963626000332731],[-122.74620999980817,53.961874999997256],[-122.74744000065054,53.960443999850632],[-122.74823799938137,53.959476999591921],[-122.74980899988509,53.957568999582556],[-122.73287299994266,53.957562999859789],[-122.73292499929495,53.946693999577981],[-122.70270000016055,53.946735000162626],[-122.70165300056046,53.948768000013956],[-122.7014440000622,53.950307999641964],[-122.70249099950546,53.952032999774445],[-122.70427000029726,53.954312000398318],[-122.70560499927727,53.955403000439276],[-122.70552599958454,53.956159999932943],[-122.70649399976253,53.957435999570521],[-122.70861300009756,53.959037000220398],[-122.70926799942593,53.961390999778871],[-122.70926800035016,53.963052999663439],[-122.70853500076069,53.963883999669292],[-122.70727899947968,53.964683999726368],[-122.70529000069415,53.965329999840648],[-122.70246399958401,53.965576999625235],[-122.70120799995107,53.965484000230752],[-122.6991669994255,53.965268999970185],[-122.69665500027644,53.965022999610611],[-122.69367299967161,53.964498999588045],[-122.69074200019934,53.96409899958681],[-122.6867119998135,53.963760999683444],[-122.68341500000267,53.963175999895981],[-122.68051100065391,53.962689999965043],[-122.67705700026006,53.962444000329803],[-122.67412599954511,53.962136000319674],[-122.67056799935524,53.961765999661587],[-122.6653339997894,53.961581999742535],[-122.66198499977817,53.961674000104139],[-122.6593160003106,53.962151999633932],[-122.65709199975207,53.963028999933222],[-122.65455399935014,53.964244999904217],[-122.65233000071802,53.965721999925371],[-122.65070700056299,53.967876000290921],[-122.64981799979613,53.969569000285937],[-122.64979200073957,53.97101499977552],[-122.65000099960126,53.971922999734353],[-122.6505500001557,53.972661999942297],[-122.65208099927909,53.973331000419449],[-122.65438400068828,53.9738239997139],[-122.65836100005896,53.97363900014075],[-122.66202500046346,53.973269999595686],[-122.66641999941811,53.972777000445198],[-122.67018799970218,53.973393000114335],[-122.67311900052451,53.974007999841938],[-122.67559200056859,53.975771000433703],[-122.67611499972213,53.977339999594101],[-122.676219999295,53.97854000008973],[-122.67671500051689,53.979117000189376],[-122.67710900045003,53.979648000445238],[-122.67778999941716,53.98038600040551],[-122.67894099989176,53.981125000332014],[-122.68066800017478,53.982386000013975],[-122.68325800026466,53.984095000270344],[-122.68618899938157,53.986433000220956],[-122.68671200011066,53.988894999634077],[-122.68632000016025,53.99081599980034],[-122.68464500022681,53.993230999830558],[-122.68255199969921,53.995169999639494],[-122.68059000062898,53.996646000056835],[-122.67841799958325,53.997615000444789],[-122.67491200038825,53.997768999668324],[-122.67302799946209,53.997291999875024],[-122.67164100045947,53.997322999752988],[-122.66922000001541,53.997432000228592],[-122.66670799949372,53.997617000331658],[-122.6642880004043,53.998162999961103],[-122.66020599995171,53.999148000250727],[-122.65601899975923,54.00000800005369],[-122.64863999945401,54.000684000385078],[-122.64340700068358,54.001268999710888],[-122.63393499981308,54.001729999750253],[-122.63100499935993,54.001990999743853],[-122.62885899925847,54.002576000436278],[-122.62679199927702,54.004190000040921],[-122.62425876733886,54.00558535374465]]]},"properties":{"OBJECTID":831,"SchoolName":"Glenview Elementary"}},{"type":"Feature","id":832,"geometry":{"type":"Polygon","coordinates":[[[-122.76040283476017,54.039554129380136],[-122.76435978068459,54.039550738885282],[-122.77664969790479,54.039543273329784],[-122.78623526391797,54.039536093765527],[-122.80089113587732,54.039570499919485],[-122.82557872816218,54.039582936254291],[-122.83780491466207,54.039585396694086],[-122.84317248407784,54.039595922438501],[-122.84313789434559,54.040022540413524],[-122.84319105801768,54.040154371884704],[-122.84336801028103,54.040593201412172],[-122.84349090638325,54.041739772707849],[-122.84731079507714,54.040901783137215],[-122.85009667695171,54.040290535812495],[-122.85009765437741,54.040163178961535],[-122.85010187713648,54.039609163110299],[-122.8501340252088,54.032369570395495],[-122.8501336783968,54.031175350444485],[-122.8501320940388,54.025149681822761],[-122.85015032882917,54.022187484272287],[-122.85018363096579,54.016390331541118],[-122.85020864429761,54.010629211571199],[-122.85006000034711,54.010629000210798],[-122.84699099935679,54.010630000363442],[-122.84403300027412,54.010627000097159],[-122.84117000061009,54.010636999683406],[-122.83791299984867,54.010630000288842],[-122.83739400056135,54.010630999952213],[-122.83681500005302,54.010670000429592],[-122.8362830002421,54.010778000322254],[-122.83557199979053,54.011012000090837],[-122.83480299952976,54.011319999732123],[-122.83422400076059,54.01148300024996],[-122.83369999932823,54.011572000190867],[-122.83312000027786,54.01160699985131],[-122.83257799975983,54.011637999683302],[-122.83192699982604,54.01162999988339],[-122.83118900060617,54.011470000284667],[-122.83076200046334,54.011340000081461],[-122.8303050007143,54.011107999828369],[-122.8300239998082,54.010906000377922],[-122.82810799990409,54.009308000395606],[-122.82754800058913,54.009033999898186],[-122.82676700065895,54.008828000173587],[-122.8256969996379,54.008795999813472],[-122.82258399930018,54.009029999771876],[-122.81942799946282,54.009265999975071],[-122.81652400044177,54.009467999814291],[-122.81452900058351,54.009603000178181],[-122.81399800031045,54.009557000237201],[-122.81346700070416,54.009434000254757],[-122.8075500006064,54.006605000344358],[-122.80686500059454,54.006270999898618],[-122.80521499968498,54.005467999895437],[-122.8033030002444,54.004530999775824],[-122.80253100039464,54.004154999571114],[-122.80162500047724,54.003714000017624],[-122.80119600071686,54.00359099976059],[-122.80115899958797,54.004760000152189],[-122.80109699959533,54.004808000071556],[-122.80109400015868,54.005103000437643],[-122.80109399999024,54.006639000043393],[-122.80108400018486,54.007179999891001],[-122.80102100057579,54.008730000351342],[-122.80105899964076,54.008793999714207],[-122.80081500071186,54.009674999705979],[-122.80060199977595,54.010129999777931],[-122.80047200011977,54.010324999894706],[-122.80023999970454,54.01066600004463],[-122.79991800005429,54.011076000325502],[-122.79984500007266,54.011112999811715],[-122.79966600059204,54.011349000314091],[-122.79905700021251,54.012014000301107],[-122.79864999998976,54.012370999773353],[-122.79730200055251,54.013370000089239],[-122.79447699928139,54.015354999608199],[-122.79035700027913,54.018277999914346],[-122.77716599977916,54.027611000413636],[-122.77639900070024,54.028176000143127],[-122.76821500074909,54.034001999559607],[-122.76081099960953,54.039263999619806],[-122.76040283476017,54.039554129380136]]]},"properties":{"OBJECTID":832,"SchoolName":"Springwood Elementary"}},{"type":"Feature","id":842,"geometry":{"type":"Polygon","coordinates":[[[-122.73409987094423,53.812570626249567],[-122.73301095841749,53.812563761922206],[-122.73218902609895,53.812606277580976],[-122.72920843495324,53.812670233444237],[-122.7238133881519,53.812786770164131],[-122.72300444167993,53.812804085752589],[-122.72154438411002,53.812835309983704],[-122.72080432832314,53.812850128098034],[-122.72078915370435,53.812850452306719],[-122.71954844832014,53.812877111239786],[-122.71894255499046,53.81289024506885],[-122.71879817784524,53.812892989660249],[-122.71879200141265,53.813110076935075],[-122.71878894244982,53.813217649909014],[-122.71892784257963,53.813407168741143],[-122.71980181754441,53.814599641606151],[-122.71993369776052,53.814779570358219],[-122.72202629162561,53.817634379673358],[-122.72160175529852,53.817743348118498],[-122.72181926229459,53.818040050635183],[-122.72206919802373,53.818381004993306],[-122.72234489533436,53.818757081492052],[-122.72126187474716,53.819895283109147],[-122.72128657194901,53.82024811916699],[-122.72075485932837,53.820406612308432],[-122.72046356452927,53.820576107864369],[-122.71983599640581,53.820834223669031],[-122.71958697689919,53.820777492437323],[-122.71863052736666,53.820747074864464],[-122.71862304489815,53.821070354602547],[-122.71397609273281,53.820972646742689],[-122.71449676885399,53.822303990790594],[-122.71627178587596,53.82578010711147],[-122.71818188956196,53.827382443667751],[-122.71848433821955,53.827379666320866],[-122.71847106613909,53.827621157373493],[-122.71835077001541,53.833201723945272],[-122.71832588505116,53.834713849370736],[-122.71827466581782,53.83673050095706],[-122.71813087625139,53.842075881683101],[-122.7176724752707,53.842079217194659],[-122.70612260502807,53.842162391096331],[-122.70620514091647,53.843745871847013],[-122.70622121979164,53.844054376853457],[-122.70616788777694,53.844638127938772],[-122.70557306902977,53.851147430792359],[-122.70556747229672,53.851208446787282],[-122.70581270878129,53.855885774954999],[-122.70594556291464,53.859445513885547],[-122.70594786486819,53.859507537864914],[-122.70594664782736,53.860136526641369],[-122.70593986631057,53.863120400007034],[-122.7059398288759,53.863143086030206],[-122.70593591427381,53.865743934677667],[-122.70592938781115,53.869124632734291],[-122.70592700737075,53.870352956427503],[-122.70592545404448,53.871156976630338],[-122.73426000005931,53.87114800038615],[-122.73486400053733,53.87115500040133],[-122.73539799960584,53.871143000345391],[-122.74298200061092,53.871140999602645],[-122.74890300046414,53.871140999772258],[-122.75527000013328,53.871138999790965],[-122.75296600054875,53.868843000403238],[-122.75094299971717,53.867279999990217],[-122.75001400021384,53.866040000354147],[-122.74919999932365,53.865367000050206],[-122.74828200030544,53.863642000004475],[-122.74766499951673,53.862342999743092],[-122.74675800011582,53.860738999708722],[-122.74595599997042,53.857962000327781],[-122.74533200026185,53.856749999731328],[-122.74519199960693,53.855763000226418],[-122.74526200040934,53.854406000072501],[-122.7451120005104,53.853557000217876],[-122.74498299949896,53.852883999713207],[-122.74512200064562,53.850950000011068],[-122.74554099963436,53.849592999624861],[-122.74609900021153,53.848111999627605],[-122.74672699944232,53.846672000219563],[-122.74693600025708,53.845355999642244],[-122.74764200064178,53.844712999995096],[-122.7486119992771,53.840363000179529],[-122.74875299984825,53.838334999948295],[-122.74882299931788,53.835521000153207],[-122.74826099998685,53.834073000150077],[-122.74739000022849,53.832780000024641],[-122.7436619998757,53.831139000386486],[-122.73774699984257,53.829153999550918],[-122.73450599968966,53.827472999581985],[-122.73191299953528,53.826061000316543],[-122.73053499982339,53.824647999917559],[-122.72980499930212,53.82258599973796],[-122.7296130000266,53.820619000202328],[-122.72996199993544,53.818930999692405],[-122.73100800053045,53.816007999713356],[-122.73390000061552,53.812904999947975],[-122.73409987094423,53.812570626249567]]]},"properties":{"OBJECTID":842,"SchoolName":"Pineview Elementary"}},{"type":"Feature","id":845,"geometry":{"type":"Polygon","coordinates":[[[-122.73409987094423,53.812570626249567],[-122.73390000061552,53.812904999947975],[-122.73100800053045,53.816007999713356],[-122.72996199993544,53.818930999692405],[-122.7296130000266,53.820619000202328],[-122.72980499930212,53.82258599973796],[-122.73053499982339,53.824647999917559],[-122.73191299953528,53.826061000316543],[-122.73450599968966,53.827472999581985],[-122.73774699984257,53.829153999550918],[-122.7436619998757,53.831139000386486],[-122.74739000022849,53.832780000024641],[-122.74826099998685,53.834073000150077],[-122.74882299931788,53.835521000153207],[-122.74875299984825,53.838334999948295],[-122.7486119992771,53.840363000179529],[-122.74764200064178,53.844712999995096],[-122.75052799946167,53.844713000048095],[-122.76985700070574,53.844712999908083],[-122.77633799976283,53.844712999581454],[-122.78748400038303,53.844715000337807],[-122.78751799978158,53.851360999748003],[-122.79353799963647,53.851360000292431],[-122.79352999927728,53.859047999881632],[-122.79433100028848,53.859382999964744],[-122.79360799980111,53.859752000331163],[-122.79361300051322,53.859989000282795],[-122.79371699935326,53.860282000288969],[-122.79505100020927,53.861197000371654],[-122.79505400025485,53.862935000411689],[-122.79806399960843,53.862919000158939],[-122.79846500060553,53.86293999995997],[-122.79859299934326,53.862934999904162],[-122.79940899963316,53.862495999685038],[-122.79941000049065,53.862569999826292],[-122.79944099995083,53.870989000309812],[-122.80035599954368,53.871371000337682],[-122.80155299965307,53.871828999724272],[-122.80218599978338,53.872038999649774],[-122.80330300057695,53.872601000442856],[-122.80428799932344,53.873408000406627],[-122.80476700070619,53.874107999829192],[-122.80644300057293,53.876798000375331],[-122.8075989998935,53.876763999798932],[-122.86232699974563,53.876860999657616],[-122.86302200016405,53.859486000397588],[-122.863566999677,53.845859999563785],[-122.86356699988877,53.839932999783031],[-122.85535500022429,53.83997500042522],[-122.85535399972086,53.836898000034552],[-122.84880899954814,53.836901000260568],[-122.84880300056386,53.829972000062277],[-122.84690700055387,53.830531999779588],[-122.84519799927919,53.831149000064833],[-122.84369600004425,53.831822999898485],[-122.84212600029427,53.832717999752639],[-122.84079500044261,53.833689000174004],[-122.83910999992347,53.835244999580077],[-122.83881700023586,53.83529299956853],[-122.83864599951839,53.83524399988228],[-122.8385389994429,53.835135999618785],[-122.83967899970595,53.834193999788397],[-122.84010100032117,53.833789000149842],[-122.84049899993624,53.833183999887012],[-122.84075100028997,53.830837999617685],[-122.84076700035288,53.83043400022337],[-122.84076799964754,53.830227000085621],[-122.84075499948831,53.8296429998299],[-122.84028699989996,53.828769999743159],[-122.83886600024219,53.827122999794746],[-122.83862499949917,53.826547999812718],[-122.8384910004449,53.825802000145785],[-122.83907699942975,53.823591000206278],[-122.83890199947319,53.821676999656994],[-122.83910099971423,53.821201000129669],[-122.83948200061255,53.820760999853597],[-122.84013700016544,53.820329999645487],[-122.84097400024149,53.820044000279346],[-122.8435419997583,53.819616000078369],[-122.84603699932356,53.818783000237772],[-122.84701099991069,53.818262999931925],[-122.85047755460384,53.816052175380804],[-122.84871527073624,53.816046034371745],[-122.84839980400939,53.816044926036298],[-122.84839068920041,53.816045354938794],[-122.84839073087069,53.815949639604604],[-122.84812963642835,53.815949668861272],[-122.82421862518545,53.815951069831634],[-122.8177521513138,53.81595203485103],[-122.81195293702149,53.815952135202267],[-122.8095402270034,53.815950647688574],[-122.80766332590804,53.81595345038594],[-122.80581819798563,53.815953264103584],[-122.80410065548337,53.81595307810084],[-122.80375890668978,53.815953508215003],[-122.79972780440546,53.81595537570972],[-122.78749134523676,53.815944847657235],[-122.77525484796003,53.81594204156476],[-122.75699728759487,53.815928107374916],[-122.73358036705059,53.815921896941695],[-122.73181366050268,53.815921240848041],[-122.73229463679367,53.815257231489618],[-122.73424888125366,53.812654784289307],[-122.73428133058663,53.812571768986345],[-122.73409987094423,53.812570626249567]]]},"properties":{"OBJECTID":845,"SchoolName":"Vanway Elementary"}},{"type":"Feature","id":846,"geometry":{"type":"Polygon","coordinates":[[[-122.85047755460384,53.816052175380804],[-122.84701099991069,53.818262999931925],[-122.84603699932356,53.818783000237772],[-122.8435419997583,53.819616000078369],[-122.84097400024149,53.820044000279346],[-122.84013700016544,53.820329999645487],[-122.83948200061255,53.820760999853597],[-122.83910099971423,53.821201000129669],[-122.83890199947319,53.821676999656994],[-122.83907699942975,53.823591000206278],[-122.8384910004449,53.825802000145785],[-122.83862499949917,53.826547999812718],[-122.83886600024219,53.827122999794746],[-122.84028699989996,53.828769999743159],[-122.84075499948831,53.8296429998299],[-122.84076799964754,53.830227000085621],[-122.84076700035288,53.83043400022337],[-122.84075100028997,53.830837999617685],[-122.84049899993624,53.833183999887012],[-122.84010100032117,53.833789000149842],[-122.83967899970595,53.834193999788397],[-122.8385389994429,53.835135999618785],[-122.83864599951839,53.83524399988228],[-122.83881700023586,53.83529299956853],[-122.83910999992347,53.835244999580077],[-122.84079500044261,53.833689000174004],[-122.84212600029427,53.832717999752639],[-122.84369600004425,53.831822999898485],[-122.84519799927919,53.831149000064833],[-122.84690700055387,53.830531999779588],[-122.84880300056386,53.829972000062277],[-122.84880899954814,53.836901000260568],[-122.85535399972086,53.836898000034552],[-122.85535500022429,53.83997500042522],[-122.86356699988877,53.839932999783031],[-122.863566999677,53.845859999563785],[-122.86302200016405,53.859486000397588],[-122.86232699974563,53.876860999657616],[-122.88994796352752,53.876892909544267],[-122.88995471934028,53.876040425992514],[-122.89001267647366,53.8738415377764],[-122.89778470056625,53.873826108117363],[-122.8977449003219,53.869441312094636],[-122.89767315600631,53.861555600851275],[-122.89766311952705,53.860453117105138],[-122.89765306051602,53.859341375357268],[-122.89763282665521,53.852431357772964],[-122.88153951893955,53.852515968700644],[-122.88153386359568,53.851450139741317],[-122.88152168464231,53.84494289441492],[-122.88152017770608,53.842461972352453],[-122.88151713029812,53.838050317808694],[-122.88152442489883,53.833473809125628],[-122.88152855336504,53.83082626501281],[-122.88153869390995,53.824485651239534],[-122.88154019329907,53.823577117646323],[-122.88154442700618,53.822334657352819],[-122.88608792077171,53.82105521131097],[-122.88609722860323,53.819191437255711],[-122.88155077056724,53.820473244927364],[-122.88156466643613,53.816353293899674],[-122.87850603098001,53.816318731440333],[-122.86933000359969,53.816214620931262],[-122.85713248313569,53.816075130828359],[-122.85047755460384,53.816052175380804]]]},"properties":{"OBJECTID":846,"SchoolName":"Beaverly Elementary"}},{"type":"Feature","id":852,"geometry":{"type":"Polygon","coordinates":[[[-122.89519259169147,53.968786707830212],[-122.88060399961915,53.968721000224335],[-122.88060399958201,53.964827000225867],[-122.86184799965754,53.964762000058357],[-122.86184799968474,53.958075999906761],[-122.84946400046152,53.958109000323766],[-122.84949100042422,53.952753000348906],[-122.84123100071034,53.952752999680293],[-122.83482199946317,53.952751999919386],[-122.83482899957193,53.939763999985814],[-122.82251299957348,53.939774999941875],[-122.82238899964207,53.940116999620059],[-122.82145500035571,53.941275000425769],[-122.82095000055384,53.94187600024614],[-122.82007700060285,53.942882000111837],[-122.81943400036741,53.943644999677382],[-122.81895900061568,53.94418300037109],[-122.81762199974465,53.945750000417029],[-122.81741200003128,53.946022999711097],[-122.82056900074377,53.94781199978928],[-122.82497599931129,53.950406000016272],[-122.82762000009312,53.952804999740152],[-122.83092499978628,53.954814000292281],[-122.83323900025732,53.956369999692249],[-122.83632399945611,53.957660999963579],[-122.8389129997544,53.958859999796665],[-122.84128099966881,53.959856999963655],[-122.84552299973105,53.961670999673139],[-122.84610200027365,53.962724000158481],[-122.85048099984289,53.966013000139853],[-122.85362099954312,53.967940000202681],[-122.85739500018032,53.969300999634896],[-122.86075500063986,53.969917000289556],[-122.86425399964293,53.970143999923856],[-122.86720100043203,53.970823999777863],[-122.8686879992818,53.971811999556103],[-122.86998299942429,53.973236999917972],[-122.87116700000519,53.974306999745139],[-122.8734500005859,53.976435000264161],[-122.87615799985646,53.977729000065473],[-122.87903400002172,53.978424999695477],[-122.88182599946107,53.978375000298335],[-122.88317999979097,53.978001999991257],[-122.88643800001282,53.977007000323482],[-122.88889099968416,53.976559999665547],[-122.89134500062758,53.976485000070504],[-122.89525599997764,53.976485999934233],[-122.89527315184924,53.976494327844478],[-122.89527111249389,53.976351174865599],[-122.89519259169147,53.968786707830212]]]},"properties":{"OBJECTID":852,"SchoolName":"Quinson Elementary"}},{"type":"Feature","id":854,"geometry":{"type":"Polygon","coordinates":[[[-122.78801100035609,53.930372999748485],[-122.78900300057738,53.932384000220026],[-122.79420400049256,53.931398000408905],[-122.7941589992801,53.931226999563421],[-122.79411699932454,53.930462999955253],[-122.79412399957052,53.929951999615078],[-122.79523199968537,53.930085999879516],[-122.79660399946903,53.930656999823469],[-122.79741899939559,53.930633999802161],[-122.79841199939061,53.930041000224108],[-122.79879799964884,53.929610999879792],[-122.79995599965574,53.929924000279833],[-122.80039000044421,53.929558999868483],[-122.80117600020402,53.928965000437685],[-122.80187999933653,53.928713000278925],[-122.8018780000324,53.928181999655422],[-122.80164300070993,53.928002999616531],[-122.80106299946519,53.927596000130769],[-122.80152099970398,53.927299000154022],[-122.80204899981381,53.926955000280806],[-122.80235999939808,53.927080999913372],[-122.80278399991421,53.927098000280139],[-122.80305100023747,53.927099999619237],[-122.80306900027601,53.926114999700694],[-122.80313999953344,53.925858999947216],[-122.80328000043518,53.925655999738296],[-122.80147800075751,53.925655999898588],[-122.80147100060749,53.924859999732845],[-122.79914399994777,53.924860000089197],[-122.79913600031331,53.924447999762847],[-122.79915099944698,53.922525999642247],[-122.79935000003182,53.922212000344878],[-122.80008199944184,53.922216000154144],[-122.80077400059062,53.921822000253108],[-122.80078099979143,53.921336000016737],[-122.80027799970031,53.920814999901502],[-122.79967800015798,53.920621999612038],[-122.79629199937128,53.920606999678327],[-122.79427500045681,53.920599999602281],[-122.79419499934075,53.920600000053788],[-122.79419200021142,53.920554999813014],[-122.79421900024404,53.920092999820348],[-122.79431700059051,53.919542000332491],[-122.79542399969776,53.917328999971339],[-122.79583100002378,53.916536999622927],[-122.79670699968349,53.914851999949512],[-122.7971010006555,53.914041999568596],[-122.7973630007281,53.913202000368166],[-122.79741500055508,53.911590999632899],[-122.79746800007047,53.910493999981156],[-122.79746800068536,53.910357000230782],[-122.79734399941439,53.910354999707153],[-122.79642999934333,53.910361000139758],[-122.79501500000629,53.910352999795087],[-122.7910960001974,53.910314999979228],[-122.79066000075397,53.910315000198821],[-122.78917900042218,53.910312999801917],[-122.78530599996601,53.910308999703268],[-122.78469899993323,53.910323999793171],[-122.78223899958665,53.910352999670749],[-122.78178700008523,53.910350999932241],[-122.78169199931909,53.910348999988237],[-122.78169699951059,53.910417999724302],[-122.78170200028768,53.911465999982163],[-122.78167799964707,53.913159999825979],[-122.78168500046709,53.914403000241322],[-122.78168300040116,53.915414000288443],[-122.78168000070626,53.916472999998049],[-122.78167700038634,53.919162999926975],[-122.78169199931068,53.920566999623027],[-122.7816779993134,53.920657000350559],[-122.78167099985019,53.923047999944274],[-122.78165899948604,53.923632999707209],[-122.78164800001733,53.924087999849547],[-122.78130800000643,53.925207999753447],[-122.78076799985124,53.926416999973199],[-122.78053499935318,53.927027999898698],[-122.78338399944057,53.927746000394656],[-122.78602800004184,53.928914000350538],[-122.78801100035609,53.930372999748485]]]},"properties":{"OBJECTID":854,"SchoolName":"Quinson Elementary"}},{"type":"Feature","id":859,"geometry":{"type":"Polygon","coordinates":[[[-122.66725190276945,53.929122147357639],[-122.66565899993732,53.928689000058689],[-122.66499799984105,53.927066999651011],[-122.66478600044789,53.924569999633064],[-122.66764200019205,53.921615999752703],[-122.67017599961572,53.919798999764708],[-122.67315099972321,53.917917999632273],[-122.6775580005508,53.91551699992764],[-122.68257099928617,53.914536999702413],[-122.68791500073183,53.914617999969806],[-122.6927630004362,53.915137000142259],[-122.69716999973679,53.915784999699966],[-122.70190800021636,53.916497999638629],[-122.70565399945238,53.917405999697827],[-122.70940000052136,53.918053999562282],[-122.71259500040561,53.918571999607927],[-122.71658900046255,53.917172999822569],[-122.72114800062353,53.914064999920306],[-122.72453599931261,53.911712999552769],[-122.72540400060208,53.910893999862871],[-122.72644399994263,53.90928299980196],[-122.72788899966575,53.907920999807722],[-122.72861700043818,53.907235999652421],[-122.72941599944475,53.906483000156364],[-122.73033299974692,53.905467999556251],[-122.73206800070606,53.903696999664874],[-122.73316299964586,53.902438999946213],[-122.73305499937825,53.900825000389951],[-122.73294499976211,53.899405999842159],[-122.73409400054211,53.897825000438552],[-122.73529899973562,53.896276999750434],[-122.7366119999364,53.895211999901143],[-122.73830900046602,53.894244000382876],[-122.74033400073658,53.89337299959135],[-122.74318100014081,53.892340999657193],[-122.74566999953319,53.891292999704945],[-122.74774299952809,53.890369999948717],[-122.74874099972519,53.889911000029066],[-122.75180099951658,53.888712000237312],[-122.75535899956495,53.886937999755901],[-122.75732899987956,53.885324000053458],[-122.7591899999499,53.883292000323124],[-122.75984700020756,53.881485000431155],[-122.75990200046316,53.879807000339099],[-122.75908099956381,53.87787099967634],[-122.75782199928192,53.87616099985825],[-122.75749299966078,53.874354000174705],[-122.75650900061332,53.873023000447382],[-122.755637000544,53.871501999947739],[-122.75527000013328,53.871138999790965],[-122.74890300046414,53.871140999772258],[-122.74298200061092,53.871140999602645],[-122.73539799960584,53.871143000345391],[-122.73486400053733,53.87115500040133],[-122.73426000005931,53.87114800038615],[-122.70592545404448,53.871156976630338],[-122.70591810865463,53.874960257911575],[-122.7059119609354,53.878112742891425],[-122.70590162609496,53.880162147304652],[-122.68990654234054,53.880182609674804],[-122.67768276471506,53.880217103130377],[-122.66541327490458,53.880240876807399],[-122.6653934786458,53.878006638127985],[-122.66538110584688,53.876610833991364],[-122.65738138958726,53.876611591688999],[-122.65730579204001,53.87661159160718],[-122.65670452460297,53.876617252833292],[-122.65609275268083,53.876616580258215],[-122.65461838620912,53.876614863860695],[-122.65318432827713,53.876613155938919],[-122.65151267945126,53.876611280651055],[-122.64539971946607,53.876617466517224],[-122.64093577440561,53.876621723662772],[-122.6349594353505,53.876624092311182],[-122.62870473830459,53.87662630042113],[-122.62871593847275,53.883856227430421],[-122.6287214432118,53.887395156650982],[-122.62872754089653,53.891085167243915],[-122.61679419520833,53.89108614016542],[-122.61663110941285,53.891082833185592],[-122.61061300666542,53.891102255447429],[-122.60762241132323,53.891091415858902],[-122.60455856762387,53.891091322244009],[-122.60462581541911,53.898259604430734],[-122.60461475391723,53.898514040106015],[-122.60446144925788,53.905551259236191],[-122.60443407502716,53.912845127022891],[-122.6166305896259,53.912884521033511],[-122.61663509639743,53.915733496016919],[-122.61663734227835,53.917150477909807],[-122.61666117907956,53.920016859597219],[-122.61666200559618,53.920209207560369],[-122.63457961549634,53.920177338245537],[-122.64034818565547,53.920163473165772],[-122.64035758507977,53.921248993068872],[-122.64105012381968,53.921247289916842],[-122.64120241211002,53.92124693604908],[-122.64120539967945,53.921518286416656],[-122.64122937767546,53.922877455904903],[-122.64126601602841,53.92496253164439],[-122.64125687831921,53.925548707186074],[-122.64124543272763,53.92627967378597],[-122.64122960679347,53.927290516057589],[-122.65024511982854,53.927256609034046],[-122.65025121112512,53.931686830941167],[-122.65055761126784,53.931684747682311],[-122.65500706333501,53.931665873067381],[-122.66251240541875,53.931614104672711],[-122.66337388461508,53.931608846310162],[-122.6637610391891,53.931606479297074],[-122.66417568658034,53.931603945228524],[-122.66565698099143,53.931594883158809],[-122.66724339045959,53.9315828583699],[-122.66725605323364,53.930779854556242],[-122.66725295707936,53.929543521800021],[-122.66725190276945,53.929122147357639]]]},"properties":{"OBJECTID":859,"SchoolName":"Blackburn Elementary"}}]}