{"type":"FeatureCollection","features":[{"type":"Feature","id":11,"geometry":{"type":"Polygon","coordinates":[[[-122.78053499935318,53.927027999898698],[-122.78076799985124,53.926416999973199],[-122.78130800000643,53.925207999753447],[-122.78164800001733,53.924087999849547],[-122.78165899948604,53.923632999707209],[-122.78167099985019,53.923047999944274],[-122.7816779993134,53.920657000350559],[-122.78169199931068,53.920566999623027],[-122.78167700038634,53.919162999926975],[-122.78168000070626,53.916472999998049],[-122.78168300040116,53.915414000288443],[-122.78168500046709,53.914403000241322],[-122.78167799964707,53.913159999825979],[-122.78170200028768,53.911465999982163],[-122.78169699951059,53.910417999724302],[-122.78169199931909,53.910348999988237],[-122.78170000022908,53.910286000055748],[-122.78170399929846,53.907282000382835],[-122.78170499997661,53.903593999803221],[-122.78158500070393,53.903595000371084],[-122.78118000058275,53.903593000175988],[-122.78118000022587,53.903199000366605],[-122.78084300071468,53.902989999739575],[-122.78049300065143,53.902999000139523],[-122.78024899955241,53.903078999882446],[-122.77956100052607,53.903634999961788],[-122.77832500058075,53.904785999731018],[-122.77795099952664,53.904975000363535],[-122.77751100067213,53.905084999958717],[-122.77680900033833,53.905113000129653],[-122.77451199928862,53.904997999774835],[-122.77411800039479,53.905009999862386],[-122.77188600075355,53.905397999653445],[-122.77151400071688,53.905354000388598],[-122.77150400009485,53.905039999788137],[-122.76696099935207,53.905043000203683],[-122.76695400042455,53.902264000075213],[-122.76596199991121,53.902263000015061],[-122.76584599933794,53.90226099961172],[-122.76541000049656,53.902253000359522],[-122.76057300016134,53.902259999881068],[-122.76059499966742,53.900668999945196],[-122.76060000075674,53.900348999712264],[-122.76001999983062,53.900339000309692],[-122.75980900021017,53.900248000016745],[-122.75923000059943,53.899347000188889],[-122.7577050004962,53.898245000434535],[-122.75655100050983,53.89778400001773],[-122.75582100036425,53.897684000025514],[-122.75521299954315,53.897700999753496],[-122.75515900059277,53.896441999631442],[-122.75517700025515,53.8960200001559],[-122.75516600036089,53.895256000036781],[-122.75515600016305,53.89440200040179],[-122.75515399925358,53.894056000240454],[-122.7551529995945,53.894006000086172],[-122.75399600044695,53.893794000100684],[-122.75272300002743,53.893511000233659],[-122.75226799925919,53.893434000434659],[-122.75137299928333,53.893162000332019],[-122.7508599996531,53.893136000303073],[-122.7506570004857,53.893145000217679],[-122.74963799995551,53.893330000286731],[-122.74943700027433,53.893336000282048],[-122.74942399976229,53.893590000342478],[-122.74938799932829,53.894407999899798],[-122.74939999947917,53.895021000041048],[-122.74743700007508,53.895032999748963],[-122.74746499947094,53.896311999838815],[-122.74746399958975,53.896390000064777],[-122.74746700036791,53.897230000004271],[-122.74543700037331,53.897229000154375],[-122.74541499929113,53.89844699993219],[-122.7454350006736,53.899229999956574],[-122.74467200051041,53.899678999859297],[-122.74433600015479,53.899875999625237],[-122.74354000009134,53.900213999956613],[-122.74322800073841,53.900329000049254],[-122.74293099940138,53.9003940001095],[-122.74281700002724,53.900453999592102],[-122.74281199931205,53.902201999642024],[-122.74281200050825,53.902208000095094],[-122.74241699943123,53.902473999958453],[-122.74184599953958,53.902473000190454],[-122.74141200058408,53.902210999989208],[-122.74079899926433,53.902561000346616],[-122.73316299964586,53.902438999946213],[-122.73206800070606,53.903696999664874],[-122.73033299974692,53.905467999556251],[-122.72941599944475,53.906483000156364],[-122.72861700043818,53.907235999652421],[-122.72788899966575,53.907920999807722],[-122.72644399994263,53.90928299980196],[-122.72540400060208,53.910893999862871],[-122.72453599931261,53.911712999552769],[-122.72114800062353,53.914064999920306],[-122.71658900046255,53.917172999822569],[-122.71259500040561,53.918571999607927],[-122.71275999946549,53.920510000036678],[-122.71529799960322,53.923449000358133],[-122.71551000008041,53.924395999990629],[-122.71606799999293,53.925183999878797],[-122.71774499955792,53.925798999833418],[-122.72123800048448,53.926271999652251],[-122.72281299982291,53.926415999694662],[-122.72407900030227,53.92717700005916],[-122.72643300045766,53.92818899962613],[-122.73019500027755,53.927420999577627],[-122.73143500002091,53.926935000006587],[-122.73441000000295,53.926967000358971],[-122.7390379995057,53.926934999967415],[-122.74289399970628,53.927032000398789],[-122.74630900075763,53.927063999936351],[-122.75068399987448,53.927352000194816],[-122.75418699947636,53.927356999573448],[-122.75980599931088,53.927356999899047],[-122.76399300010689,53.927162999815366],[-122.76685599939751,53.927152999805763],[-122.76851000049365,53.927195000449665],[-122.77225600064462,53.926967999849964],[-122.77666300026706,53.926480999772942],[-122.7800229996773,53.926935999958012],[-122.78053499935318,53.927027999898698]]]},"properties":{"OBJECTID":11,"SchoolNam":"Duchess Park Secondary"}},{"type":"Feature","id":14,"geometry":{"type":"Polygon","coordinates":[[[-122.62425876733886,54.00558535374465],[-122.62432624973511,54.005658852544897],[-122.62458952318596,54.005745321345465],[-122.62477872485105,54.005770269436503],[-122.62827394608907,54.005770333571817],[-122.6338302437758,54.005770219249747],[-122.64449426260946,54.005769152761566],[-122.644495447791,54.005934444889817],[-122.64454173656931,54.012767496212795],[-122.65096269586607,54.012786309091972],[-122.66428914315436,54.012824259980199],[-122.6667721089176,54.012831167680012],[-122.66913056915543,54.012797235761788],[-122.68132273636681,54.012793500706927],[-122.69370455429316,54.012606737156659],[-122.69481156956209,54.012602362046266],[-122.70566897847122,54.012558698109061],[-122.71801548905511,54.012510544962161],[-122.72533300172859,54.012478051740679],[-122.72759575632064,54.012469538319408],[-122.72759660544253,54.012984368860394],[-122.72759696300115,54.013303441155067],[-122.72760026506903,54.021972299786292],[-122.72759995105648,54.025087590802727],[-122.72759943114741,54.030960207040557],[-122.7275984159196,54.039594058452693],[-122.75206709821586,54.039559693094418],[-122.75569484054157,54.039557994648014],[-122.76435978068459,54.039550738885282],[-122.77664969790479,54.039543273329784],[-122.78623526391797,54.039536093765527],[-122.80089113587732,54.039570499919485],[-122.82557872816218,54.039582936254291],[-122.83780491466207,54.039585396694086],[-122.84317248407784,54.039595922438501],[-122.84313789434559,54.040022540413524],[-122.84319105801768,54.040154371884704],[-122.84336801028103,54.040593201412172],[-122.84349090638325,54.041739772707849],[-122.84731079507714,54.040901783137215],[-122.85009667695171,54.040290535812495],[-122.85009765437741,54.040163178961535],[-122.85010187713648,54.039609163110299],[-122.8501340252088,54.032369570395495],[-122.8501336783968,54.031175350444485],[-122.8501320940388,54.025149681822761],[-122.85015032882917,54.022187484272287],[-122.85018363096579,54.016390331541118],[-122.85020882300419,54.010587950091676],[-122.8502242116013,54.004211761965585],[-122.85036220891953,53.996151911650941],[-122.85035226528794,53.995223994005684],[-122.85025668702787,53.98623593401058],[-122.85020831331222,53.981696239368809],[-122.86258513953402,53.981676065028665],[-122.87482468938337,53.981653035118157],[-122.87802546249948,53.981646223790982],[-122.89938674887003,53.981598361969361],[-122.8993854040492,53.981325572974228],[-122.85016500055706,53.981294999922817],[-122.8257979993611,53.981304999684824],[-122.82573199971802,53.967609000319193],[-122.81273299997459,53.967609000405908],[-122.81269300001337,53.962122999964294],[-122.81179000031207,53.962965999675689],[-122.81093500002585,53.963377999675373],[-122.80951600032348,53.963779999565219],[-122.80745599947076,53.964064999631269],[-122.80605400048658,53.964187999654577],[-122.80238000024268,53.964290000411232],[-122.80070199946759,53.964412999665456],[-122.79966499967522,53.964590999902882],[-122.79790900057931,53.965171999947792],[-122.79644199938309,53.966032999599818],[-122.79530700020524,53.967343000079843],[-122.78842100016772,53.962056000094798],[-122.78839599979766,53.951268999663228],[-122.7771579997964,53.951332999780753],[-122.77726800004321,53.94270399990706],[-122.76896400028203,53.942708000162213],[-122.76119499983473,53.942707999800625],[-122.76096599994969,53.942611000349892],[-122.76076400023018,53.940619999583546],[-122.76055800043443,53.939668000168801],[-122.76032899943107,53.939114000203659],[-122.75985999966271,53.938289999606951],[-122.75958600022923,53.937952000259202],[-122.75899199968671,53.937202999975547],[-122.75895900016208,53.937084999936872],[-122.75809599952704,53.935906000238674],[-122.75799500054373,53.935051999583457],[-122.75827399985424,53.934170999974448],[-122.75904000062056,53.933328000185099],[-122.75903000009568,53.931413000117928],[-122.69671100035119,53.931379999874345],[-122.69918199928709,53.932883000426557],[-122.70000899965177,53.934148000159297],[-122.7008899999241,53.935802000014824],[-122.70105600000365,53.937618000314593],[-122.70072499982911,53.939434000282496],[-122.70127599968177,53.940471999891145],[-122.70252299996135,53.942041999739175],[-122.70320500072889,53.943293000071698],[-122.70279199945533,53.944720000406797],[-122.70270000016055,53.946735000162626],[-122.70165300056046,53.948768000013956],[-122.7014440000622,53.950307999641964],[-122.70249099950546,53.952032999774445],[-122.70427000029726,53.954312000398318],[-122.70560499927727,53.955403000439276],[-122.70552599958454,53.956159999932943],[-122.70649399976253,53.957435999570521],[-122.70861300009756,53.959037000220398],[-122.70926799942593,53.961390999778871],[-122.70926800035016,53.963052999663439],[-122.70853500076069,53.963883999669292],[-122.70727899947968,53.964683999726368],[-122.70529000069415,53.965329999840648],[-122.70246399958401,53.965576999625235],[-122.70120799995107,53.965484000230752],[-122.6991669994255,53.965268999970185],[-122.69665500027644,53.965022999610611],[-122.69367299967161,53.964498999588045],[-122.69074200019934,53.96409899958681],[-122.6867119998135,53.963760999683444],[-122.68341500000267,53.963175999895981],[-122.68051100065391,53.962689999965043],[-122.67705700026006,53.962444000329803],[-122.67412599954511,53.962136000319674],[-122.67056799935524,53.961765999661587],[-122.6653339997894,53.961581999742535],[-122.66198499977817,53.961674000104139],[-122.6593160003106,53.962151999633932],[-122.65709199975207,53.963028999933222],[-122.65455399935014,53.964244999904217],[-122.65233000071802,53.965721999925371],[-122.65070700056299,53.967876000290921],[-122.64981799979613,53.969569000285937],[-122.64979200073957,53.97101499977552],[-122.65000099960126,53.971922999734353],[-122.6505500001557,53.972661999942297],[-122.65208099927909,53.973331000419449],[-122.65438400068828,53.9738239997139],[-122.65836100005896,53.97363900014075],[-122.66202500046346,53.973269999595686],[-122.66641999941811,53.972777000445198],[-122.67018799970218,53.973393000114335],[-122.67311900052451,53.974007999841938],[-122.67559200056859,53.975771000433703],[-122.67611499972213,53.977339999594101],[-122.676219999295,53.97854000008973],[-122.67671500051689,53.979117000189376],[-122.67710900045003,53.979648000445238],[-122.67778999941716,53.98038600040551],[-122.67894099989176,53.981125000332014],[-122.68066800017478,53.982386000013975],[-122.68325800026466,53.984095000270344],[-122.68618899938157,53.986433000220956],[-122.68671200011066,53.988894999634077],[-122.68632000016025,53.99081599980034],[-122.68464500022681,53.993230999830558],[-122.68255199969921,53.995169999639494],[-122.68059000062898,53.996646000056835],[-122.67841799958325,53.997615000444789],[-122.67491200038825,53.997768999668324],[-122.67302799946209,53.997291999875024],[-122.67164100045947,53.997322999752988],[-122.66922000001541,53.997432000228592],[-122.66670799949372,53.997617000331658],[-122.6642880004043,53.998162999961103],[-122.66020599995171,53.999148000250727],[-122.65601899975923,54.00000800005369],[-122.64863999945401,54.000684000385078],[-122.64340700068358,54.001268999710888],[-122.63393499981308,54.001729999750253],[-122.63100499935993,54.001990999743853],[-122.62885899925847,54.002576000436278],[-122.62679199927702,54.004190000040921],[-122.62425876733886,54.00558535374465]]]},"properties":{"OBJECTID":14,"SchoolNam":"Shas Ti Kelly Road Secondary"}},{"type":"Feature","id":16,"geometry":{"type":"Polygon","coordinates":[[[-122.88994796352752,53.876892909544267],[-122.86232699974563,53.876860999657616],[-122.8075989998935,53.876763999798932],[-122.80644300057293,53.876798000375331],[-122.80476700070619,53.874107999829192],[-122.80428799932344,53.873408000406627],[-122.80330300057695,53.872601000442856],[-122.80218599978338,53.872038999649774],[-122.80155299965307,53.871828999724272],[-122.80035599954368,53.871371000337682],[-122.79944099995083,53.870989000309812],[-122.79941000049065,53.862569999826292],[-122.79940899963316,53.862495999685038],[-122.79859299934326,53.862934999904162],[-122.79705500033343,53.863718999951011],[-122.79621800045359,53.864065999794434],[-122.79544599937171,53.864288999955235],[-122.79163499951345,53.865051000393869],[-122.78422400070207,53.866562999770338],[-122.78400700046008,53.866622000379948],[-122.78312999943583,53.866921000263083],[-122.78255100041299,53.86719599996804],[-122.78211099954663,53.867424000444778],[-122.78156999994448,53.867797000016239],[-122.78106599948802,53.868216999774681],[-122.78066099998526,53.868784000439113],[-122.78048100015411,53.869141999551509],[-122.78043900042482,53.869197999703424],[-122.78040799973365,53.869271000347069],[-122.77969300062723,53.870863000365475],[-122.77893500076028,53.872576999631853],[-122.7784729994311,53.873494000349112],[-122.77838999950919,53.873628000351303],[-122.77810200008442,53.873976000041786],[-122.77756099986139,53.874463999604856],[-122.77699899965152,53.87482599987996],[-122.7764190001247,53.875087999842066],[-122.77572600031235,53.87531199984074],[-122.77527599926961,53.875400999943707],[-122.77487199996493,53.875440999588278],[-122.77442300039131,53.875476999886374],[-122.77337900021355,53.875520999615873],[-122.77286499963769,53.875586000073568],[-122.77245099961537,53.875708999566832],[-122.77214799976865,53.875819999808279],[-122.77193500061195,53.875914999776199],[-122.77158800032899,53.87613200004882],[-122.77122600044595,53.876444000380808],[-122.77079099929485,53.876929999766183],[-122.77058799990807,53.877417999694735],[-122.77046100035672,53.877406000448786],[-122.7695540007095,53.877262999913938],[-122.76786699944952,53.877061999911312],[-122.76496599974602,53.876221000230409],[-122.76359600000653,53.875466999556437],[-122.76271100066322,53.874365000266351],[-122.75749299966078,53.874354000174705],[-122.75650900061332,53.873023000447382],[-122.755637000544,53.871501999947739],[-122.75527000013328,53.871138999790965],[-122.75296600054875,53.868843000403238],[-122.75094299971717,53.867279999990217],[-122.75001400021384,53.866040000354147],[-122.74919999932365,53.865367000050206],[-122.74828200030544,53.863642000004475],[-122.74766499951673,53.862342999743092],[-122.74675800011582,53.860738999708722],[-122.74595599997042,53.857962000327781],[-122.74533200026185,53.856749999731328],[-122.74519199960693,53.855763000226418],[-122.74526200040934,53.854406000072501],[-122.7451120005104,53.853557000217876],[-122.74498299949896,53.852883999713207],[-122.74512200064562,53.850950000011068],[-122.74554099963436,53.849592999624861],[-122.74609900021153,53.848111999627605],[-122.74672699944232,53.846672000219563],[-122.74693600025708,53.845355999642244],[-122.74764200064178,53.844712999995096],[-122.7486119992771,53.840363000179529],[-122.74875299984825,53.838334999948295],[-122.74882299931788,53.835521000153207],[-122.74826099998685,53.834073000150077],[-122.74739000022849,53.832780000024641],[-122.7436619998757,53.831139000386486],[-122.73774699984257,53.829153999550918],[-122.73450599968966,53.827472999581985],[-122.73191299953528,53.826061000316543],[-122.73053499982339,53.824647999917559],[-122.72980499930212,53.82258599973796],[-122.7296130000266,53.820619000202328],[-122.72996199993544,53.818930999692405],[-122.73100800053045,53.816007999713356],[-122.73390000061552,53.812904999947975],[-122.73409987094423,53.812570626249567],[-122.73301095841749,53.812563761922206],[-122.73218902609895,53.812606277580976],[-122.72920843495324,53.812670233444237],[-122.7238133881519,53.812786770164131],[-122.72300444167993,53.812804085752589],[-122.72154438411002,53.812835309983704],[-122.72080432832314,53.812850128098034],[-122.72078915370435,53.812850452306719],[-122.71954844832014,53.812877111239786],[-122.71894255499046,53.81289024506885],[-122.71879817784524,53.812892989660249],[-122.71879200141265,53.813110076935075],[-122.71878894244982,53.813217649909014],[-122.71892784257963,53.813407168741143],[-122.71980181754441,53.814599641606151],[-122.71993369776052,53.814779570358219],[-122.72202629162561,53.817634379673358],[-122.72160175529852,53.817743348118498],[-122.72181926229459,53.818040050635183],[-122.72206919802373,53.818381004993306],[-122.72234489533436,53.818757081492052],[-122.72126187474716,53.819895283109147],[-122.72128657194901,53.82024811916699],[-122.72075485932837,53.820406612308432],[-122.72046356452927,53.820576107864369],[-122.71983599640581,53.820834223669031],[-122.71958697689919,53.820777492437323],[-122.71863052736666,53.820747074864464],[-122.71862304489815,53.821070354602547],[-122.71397609273281,53.820972646742689],[-122.71449676885399,53.822303990790594],[-122.71627178587596,53.82578010711147],[-122.71818188956196,53.827382443667751],[-122.71848433821955,53.827379666320866],[-122.71847106613909,53.827621157373493],[-122.71835077001541,53.833201723945272],[-122.71832588505116,53.834713849370736],[-122.71827466581782,53.83673050095706],[-122.71813087625139,53.842075881683101],[-122.7176724752707,53.842079217194659],[-122.70612260502807,53.842162391096331],[-122.70620514091647,53.843745871847013],[-122.70622121979164,53.844054376853457],[-122.70616788777694,53.844638127938772],[-122.70557306902977,53.851147430792359],[-122.70556747229672,53.851208446787282],[-122.70581270878129,53.855885774954999],[-122.70594556291464,53.859445513885547],[-122.70594786486819,53.859507537864914],[-122.70594664782736,53.860136526641369],[-122.70593986631057,53.863120400007034],[-122.7059398288759,53.863143086030206],[-122.70593591427381,53.865743934677667],[-122.70592938781115,53.869124632734291],[-122.70592700737075,53.870352956427503],[-122.70592545404448,53.871156976630338],[-122.70591810865463,53.874960257911575],[-122.7059119609354,53.878112742891425],[-122.70590162609496,53.880162147304652],[-122.68990654234054,53.880182609674804],[-122.67768276471506,53.880217103130377],[-122.66541327490458,53.880240876807399],[-122.6653934786458,53.878006638127985],[-122.66538110584688,53.876610833991364],[-122.65738138958726,53.876611591688999],[-122.65730579204001,53.87661159160718],[-122.65670452460297,53.876617252833292],[-122.65609275268083,53.876616580258215],[-122.65461838620912,53.876614863860695],[-122.65318432827713,53.876613155938919],[-122.65151267945126,53.876611280651055],[-122.64539971946607,53.876617466517224],[-122.64093577440561,53.876621723662772],[-122.6349594353505,53.876624092311182],[-122.62870473830459,53.87662630042113],[-122.62871593847275,53.883856227430421],[-122.6287214432118,53.887395156650982],[-122.62872754089653,53.891085167243915],[-122.61679419520833,53.89108614016542],[-122.61663110941285,53.891082833185592],[-122.61061300666542,53.891102255447429],[-122.60762241132323,53.891091415858902],[-122.60455856762387,53.891091322244009],[-122.60462581541911,53.898259604430734],[-122.60461475391723,53.898514040106015],[-122.60446144925788,53.905551259236191],[-122.60443407502716,53.912845127022891],[-122.6166305896259,53.912884521033511],[-122.61663509639743,53.915733496016919],[-122.61663734227835,53.917150477909807],[-122.61666117907956,53.920016859597219],[-122.61666200559618,53.920209207560369],[-122.63457961549634,53.920177338245537],[-122.64034818565547,53.920163473165772],[-122.64035758507977,53.921248993068872],[-122.64105012381968,53.921247289916842],[-122.64120241211002,53.92124693604908],[-122.64120539967945,53.921518286416656],[-122.64122937767546,53.922877455904903],[-122.64126601602841,53.92496253164439],[-122.64125687831921,53.925548707186074],[-122.64124543272763,53.92627967378597],[-122.64122960679347,53.927290516057589],[-122.65024511982854,53.927256609034046],[-122.65025121112512,53.931686830941167],[-122.65055761126784,53.931684747682311],[-122.65500706333501,53.931665873067381],[-122.66251240541875,53.931614104672711],[-122.66337388461508,53.931608846310162],[-122.6637610391891,53.931606479297074],[-122.66417568658034,53.931603945228524],[-122.66565698099143,53.931594883158809],[-122.66724339045959,53.9315828583699],[-122.66725605323364,53.930779854556242],[-122.6672529570865,53.929543520901241],[-122.66725190276945,53.929122147357639],[-122.66565899993732,53.928689000058689],[-122.66499799984105,53.927066999651011],[-122.66478600044789,53.924569999633064],[-122.66764200019205,53.921615999752703],[-122.67017599961572,53.919798999764708],[-122.67315099972321,53.917917999632273],[-122.6775580005508,53.91551699992764],[-122.68257099928617,53.914536999702413],[-122.68791500073183,53.914617999969806],[-122.6927630004362,53.915137000142259],[-122.69716999973679,53.915784999699966],[-122.70190800021636,53.916497999638629],[-122.70565399945238,53.917405999697827],[-122.70940000052136,53.918053999562282],[-122.71259500040561,53.918571999607927],[-122.71658900046255,53.917172999822569],[-122.72114800062353,53.914064999920306],[-122.72453599931261,53.911712999552769],[-122.72540400060208,53.910893999862871],[-122.72644399994263,53.90928299980196],[-122.72788899966575,53.907920999807722],[-122.72861700043818,53.907235999652421],[-122.72941599944475,53.906483000156364],[-122.73033299974692,53.905467999556251],[-122.73206800070606,53.903696999664874],[-122.73316299964586,53.902438999946213],[-122.74079899926433,53.902561000346616],[-122.74141200058408,53.902210999989208],[-122.74184599953958,53.902473000190454],[-122.74241699943123,53.902473999958453],[-122.74281200050825,53.902208000095094],[-122.74281199931205,53.902201999642024],[-122.74281700002724,53.900453999592102],[-122.74293099940138,53.9003940001095],[-122.74322800073841,53.900329000049254],[-122.74354000009134,53.900213999956613],[-122.74433600015479,53.899875999625237],[-122.74467200051041,53.899678999859297],[-122.7454350006736,53.899229999956574],[-122.74541499929113,53.89844699993219],[-122.74543700037331,53.897229000154375],[-122.74746700036791,53.897230000004271],[-122.74746399958975,53.896390000064777],[-122.74746499947094,53.896311999838815],[-122.74743700007508,53.895032999748963],[-122.74939999947917,53.895021000041048],[-122.74938799932829,53.894407999899798],[-122.74942399976229,53.893590000342478],[-122.74943700027433,53.893336000282048],[-122.74963799995551,53.893330000286731],[-122.7506570004857,53.893145000217679],[-122.7508599996531,53.893136000303073],[-122.75137299928333,53.893162000332019],[-122.75226799925919,53.893434000434659],[-122.75272300002743,53.893511000233659],[-122.75399600044695,53.893794000100684],[-122.7551529995945,53.894006000086172],[-122.75515399925358,53.894056000240454],[-122.75515600016305,53.89440200040179],[-122.75516600036089,53.895256000036781],[-122.75517700025515,53.8960200001559],[-122.75515900059277,53.896441999631442],[-122.75521299954315,53.897700999753496],[-122.75582100036425,53.897684000025514],[-122.75655100050983,53.89778400001773],[-122.7577050004962,53.898245000434535],[-122.75923000059943,53.899347000188889],[-122.75980900021017,53.900248000016745],[-122.76001999983062,53.900339000309692],[-122.76060000075674,53.900348999712264],[-122.76059499966742,53.900668999945196],[-122.76057300016134,53.902259999881068],[-122.76541000049656,53.902253000359522],[-122.76584599933794,53.90226099961172],[-122.76596199991121,53.902263000015061],[-122.76695400042455,53.902264000075213],[-122.76696099935207,53.905043000203683],[-122.77150400009485,53.905039999788137],[-122.77151400071688,53.905354000388598],[-122.77188600075355,53.905397999653445],[-122.77411800039479,53.905009999862386],[-122.77451199928862,53.904997999774835],[-122.77680900033833,53.905113000129653],[-122.77751100067213,53.905084999958717],[-122.77795099952664,53.904975000363535],[-122.77832500058075,53.904785999731018],[-122.77956100052607,53.903634999961788],[-122.78024899955241,53.903078999882446],[-122.78049300065143,53.902999000139523],[-122.78084300071468,53.902989999739575],[-122.78118000022587,53.903199000366605],[-122.78118000058275,53.903593000175988],[-122.78158500070393,53.903595000371084],[-122.78170499997661,53.903593999803221],[-122.78170399929846,53.907282000382835],[-122.78170000022908,53.910286000055748],[-122.78169199931909,53.910348999988237],[-122.78178700008523,53.910350999932241],[-122.78223899958665,53.910352999670749],[-122.78469899993323,53.910323999793171],[-122.78530599996601,53.910308999703268],[-122.78917900042218,53.910312999801917],[-122.79066000075397,53.910315000198821],[-122.7910960001974,53.910314999979228],[-122.79501500000629,53.910352999795087],[-122.79642999934333,53.910361000139758],[-122.79734399941439,53.910354999707153],[-122.79746800068536,53.910357000230782],[-122.79756799990048,53.91035899971498],[-122.80065300050805,53.910382999592684],[-122.80447899934113,53.910345000387331],[-122.80694700052568,53.910353999755266],[-122.80714000028928,53.910358000374636],[-122.81146799944609,53.910365000012305],[-122.81169200059351,53.910358999615632],[-122.8125050005667,53.910343999751476],[-122.81306000022659,53.910334999717449],[-122.81370199960942,53.910266999626707],[-122.81429799977786,53.910121000233652],[-122.81453599924694,53.910055999630735],[-122.8148599998383,53.909898999892178],[-122.81518400013078,53.909716000391889],[-122.81551899975368,53.909433000387352],[-122.81574499980253,53.909148999944129],[-122.81585499927124,53.90890400022775],[-122.81590699994963,53.908719999811332],[-122.81590099992124,53.908355000393357],[-122.81584899959593,53.908158000138769],[-122.81567000037589,53.907776000358069],[-122.81480499927591,53.906342000442415],[-122.81455099956031,53.905755000030972],[-122.81421500027636,53.904943999903594],[-122.81362100037366,53.903116999741592],[-122.8136879995016,53.903110000440151],[-122.83152599970722,53.903105000327479],[-122.83132199949941,53.900843000063276],[-122.83143300024568,53.896105999765567],[-122.83192399994559,53.894955999997492],[-122.84901000059624,53.894916000062281],[-122.84894000000661,53.902774999641871],[-122.88985648481348,53.902811106743528],[-122.88988328946613,53.897784166063495],[-122.88988464948206,53.896398655154584],[-122.8898933631035,53.88741057777316],[-122.88989728712441,53.883311929055651],[-122.88993583941661,53.878422517817086],[-122.88994796352752,53.876892909544267]]]},"properties":{"OBJECTID":16,"SchoolNam":"Prince George Secondary"}},{"type":"Feature","id":18,"geometry":{"type":"Polygon","coordinates":[[[-122.73409987094423,53.812570626249567],[-122.73390000061552,53.812904999947975],[-122.73100800053045,53.816007999713356],[-122.72996199993544,53.818930999692405],[-122.7296130000266,53.820619000202328],[-122.72980499930212,53.82258599973796],[-122.73053499982339,53.824647999917559],[-122.73191299953528,53.826061000316543],[-122.73450599968966,53.827472999581985],[-122.73774699984257,53.829153999550918],[-122.7436619998757,53.831139000386486],[-122.74739000022849,53.832780000024641],[-122.74826099998685,53.834073000150077],[-122.74882299931788,53.835521000153207],[-122.74875299984825,53.838334999948295],[-122.7486119992771,53.840363000179529],[-122.74764200064178,53.844712999995096],[-122.74693600025708,53.845355999642244],[-122.74672699944232,53.846672000219563],[-122.74609900021153,53.848111999627605],[-122.74554099963436,53.849592999624861],[-122.74512200064562,53.850950000011068],[-122.74498299949896,53.852883999713207],[-122.7451120005104,53.853557000217876],[-122.74526200040934,53.854406000072501],[-122.74519199960693,53.855763000226418],[-122.74533200026185,53.856749999731328],[-122.74595599997042,53.857962000327781],[-122.74675800011582,53.860738999708722],[-122.74766499951673,53.862342999743092],[-122.74828200030544,53.863642000004475],[-122.74919999932365,53.865367000050206],[-122.75001400021384,53.866040000354147],[-122.75094299971717,53.867279999990217],[-122.75296600054875,53.868843000403238],[-122.75527000013328,53.871138999790965],[-122.755637000544,53.871501999947739],[-122.75650900061332,53.873023000447382],[-122.75749299966078,53.874354000174705],[-122.76271100066322,53.874365000266351],[-122.76359600000653,53.875466999556437],[-122.76496599974602,53.876221000230409],[-122.76786699944952,53.877061999911312],[-122.7695540007095,53.877262999913938],[-122.77046100035672,53.877406000448786],[-122.77058799990807,53.877417999694735],[-122.77079099929485,53.876929999766183],[-122.77122600044595,53.876444000380808],[-122.77158800032899,53.87613200004882],[-122.77193500061195,53.875914999776199],[-122.77214799976865,53.875819999808279],[-122.77245099961537,53.875708999566832],[-122.77286499963769,53.875586000073568],[-122.77337900021355,53.875520999615873],[-122.77442300039131,53.875476999886374],[-122.77487199996493,53.875440999588278],[-122.77527599926961,53.875400999943707],[-122.77572600031235,53.87531199984074],[-122.7764190001247,53.875087999842066],[-122.77699899965152,53.87482599987996],[-122.77756099986139,53.874463999604856],[-122.77810200008442,53.873976000041786],[-122.77838999950919,53.873628000351303],[-122.7784729994311,53.873494000349112],[-122.77893500076028,53.872576999631853],[-122.77969300062723,53.870863000365475],[-122.78040799973365,53.869271000347069],[-122.78043900042482,53.869197999703424],[-122.78048100015411,53.869141999551509],[-122.78066099998526,53.868784000439113],[-122.78106599948802,53.868216999774681],[-122.78156999994448,53.867797000016239],[-122.78211099954663,53.867424000444778],[-122.78255100041299,53.86719599996804],[-122.78312999943583,53.866921000263083],[-122.78400700046008,53.866622000379948],[-122.78422400070207,53.866562999770338],[-122.79163499951345,53.865051000393869],[-122.79544599937171,53.864288999955235],[-122.79621800045359,53.864065999794434],[-122.79705500033343,53.863718999951011],[-122.79859299934326,53.862934999904162],[-122.79940899963316,53.862495999685038],[-122.79941000049065,53.862569999826292],[-122.79944099995083,53.870989000309812],[-122.80035599954368,53.871371000337682],[-122.80155299965307,53.871828999724272],[-122.80218599978338,53.872038999649774],[-122.80330300057695,53.872601000442856],[-122.80428799932344,53.873408000406627],[-122.80476700070619,53.874107999829192],[-122.80644300057293,53.876798000375331],[-122.8075989998935,53.876763999798932],[-122.86232699974563,53.876860999657616],[-122.88994796352752,53.876892909544267],[-122.88995471934028,53.876040425992514],[-122.89001267647366,53.8738415377764],[-122.89778470056625,53.873826108117363],[-122.8977449003219,53.869441312094636],[-122.89767315600631,53.861555600851275],[-122.89766311952705,53.860453117105138],[-122.89765306051602,53.859341375357268],[-122.89763282665521,53.852431357772964],[-122.88153951893955,53.852515968700644],[-122.88153386359568,53.851450139741317],[-122.88152168464231,53.84494289441492],[-122.88152017770608,53.842461972352453],[-122.88151713029812,53.838050317808694],[-122.88152442489883,53.833473809125628],[-122.88152855336504,53.83082626501281],[-122.88153869390995,53.824485651239534],[-122.88154019329907,53.823577117646323],[-122.88154442700618,53.822334657352819],[-122.88608792077171,53.82105521131097],[-122.88609722860323,53.819191437255711],[-122.88155077056724,53.820473244927364],[-122.88156466643613,53.816353293899674],[-122.87850603098001,53.816318731440333],[-122.86933000359969,53.816214620931262],[-122.85713248313569,53.816075130828359],[-122.84871527073624,53.816046034371745],[-122.84839980400939,53.816044926036298],[-122.84839068920041,53.816045354938794],[-122.84839073087069,53.815949639604604],[-122.84812963642835,53.815949668861272],[-122.82421862518545,53.815951069831634],[-122.8177521513138,53.81595203485103],[-122.81195293702149,53.815952135202267],[-122.8095402270034,53.815950647688574],[-122.80766332590804,53.81595345038594],[-122.80581819798563,53.815953264103584],[-122.80410065548337,53.81595307810084],[-122.80375890668978,53.815953508215003],[-122.79972780440546,53.81595537570972],[-122.78749134523676,53.815944847657235],[-122.77525484796003,53.81594204156476],[-122.75699728759487,53.815928107374916],[-122.73358036705059,53.815921896941695],[-122.73181366050268,53.815921240848041],[-122.73229463679367,53.815257231489618],[-122.73424888125366,53.812654784289307],[-122.73428133058663,53.812571768986345],[-122.73409987094423,53.812570626249567]]]},"properties":{"OBJECTID":18,"SchoolNam":"College Heights Secondary"}},{"type":"Feature","id":22,"geometry":{"type":"Polygon","coordinates":[[[-122.88985648481348,53.902811106743528],[-122.84894000000661,53.902774999641871],[-122.84901000059624,53.894916000062281],[-122.83192399994559,53.894955999997492],[-122.83143300024568,53.896105999765567],[-122.83132199949941,53.900843000063276],[-122.83152599970722,53.903105000327479],[-122.8136879995016,53.903110000440151],[-122.81362100037366,53.903116999741592],[-122.81421500027636,53.904943999903594],[-122.81455099956031,53.905755000030972],[-122.81480499927591,53.906342000442415],[-122.81567000037589,53.907776000358069],[-122.81584899959593,53.908158000138769],[-122.81590099992124,53.908355000393357],[-122.81590699994963,53.908719999811332],[-122.81585499927124,53.90890400022775],[-122.81574499980253,53.909148999944129],[-122.81551899975368,53.909433000387352],[-122.81518400013078,53.909716000391889],[-122.8148599998383,53.909898999892178],[-122.81453599924694,53.910055999630735],[-122.81429799977786,53.910121000233652],[-122.81370199960942,53.910266999626707],[-122.81306000022659,53.910334999717449],[-122.8125050005667,53.910343999751476],[-122.81169200059351,53.910358999615632],[-122.81146799944609,53.910365000012305],[-122.80714000028928,53.910358000374636],[-122.80694700052568,53.910353999755266],[-122.80447899934113,53.910345000387331],[-122.80065300050805,53.910382999592684],[-122.79756799990048,53.91035899971498],[-122.79746800068536,53.910357000230782],[-122.79734399941439,53.910354999707153],[-122.79642999934333,53.910361000139758],[-122.79501500000629,53.910352999795087],[-122.7910960001974,53.910314999979228],[-122.79066000075397,53.910315000198821],[-122.78917900042218,53.910312999801917],[-122.78530599996601,53.910308999703268],[-122.78469899993323,53.910323999793171],[-122.78223899958665,53.910352999670749],[-122.78178700008523,53.910350999932241],[-122.78169199931909,53.910348999988237],[-122.78169699951059,53.910417999724302],[-122.78170200028768,53.911465999982163],[-122.78167799964707,53.913159999825979],[-122.78168500046709,53.914403000241322],[-122.78168300040116,53.915414000288443],[-122.78168000070626,53.916472999998049],[-122.78167700038634,53.919162999926975],[-122.78169199931068,53.920566999623027],[-122.7816779993134,53.920657000350559],[-122.78167099985019,53.923047999944274],[-122.78165899948604,53.923632999707209],[-122.78164800001733,53.924087999849547],[-122.78130800000643,53.925207999753447],[-122.78076799985124,53.926416999973199],[-122.78053499935318,53.927027999898698],[-122.7800229996773,53.926935999958012],[-122.77666300026706,53.926480999772942],[-122.77225600064462,53.926967999849964],[-122.76851000049365,53.927195000449665],[-122.76685599939751,53.927152999805763],[-122.76399300010689,53.927162999815366],[-122.75980599931088,53.927356999899047],[-122.75418699947636,53.927356999573448],[-122.75068399987448,53.927352000194816],[-122.74630900075763,53.927063999936351],[-122.74289399970628,53.927032000398789],[-122.7390379995057,53.926934999967415],[-122.73441000000295,53.926967000358971],[-122.73143500002091,53.926935000006587],[-122.73019500027755,53.927420999577627],[-122.72643300045766,53.92818899962613],[-122.72407900030227,53.92717700005916],[-122.72281299982291,53.926415999694662],[-122.72123800048448,53.926271999652251],[-122.71774499955792,53.925798999833418],[-122.71606799999293,53.925183999878797],[-122.71551000008041,53.924395999990629],[-122.71529799960322,53.923449000358133],[-122.71275999946549,53.920510000036678],[-122.71259500040561,53.918571999607927],[-122.70940000052136,53.918053999562282],[-122.70565399945238,53.917405999697827],[-122.70190800021636,53.916497999638629],[-122.69716999973679,53.915784999699966],[-122.6927630004362,53.915137000142259],[-122.68791500073183,53.914617999969806],[-122.68257099928617,53.914536999702413],[-122.6775580005508,53.91551699992764],[-122.67315099972321,53.917917999632273],[-122.67017599961572,53.919798999764708],[-122.66764200019205,53.921615999752703],[-122.66478600044789,53.924569999633064],[-122.66499799984105,53.927066999651011],[-122.66565899993732,53.928689000058689],[-122.66835099932753,53.929420999892834],[-122.67260000014893,53.929921000415035],[-122.67733799971488,53.929725999778441],[-122.68416900028502,53.929078000248502],[-122.68912699977859,53.929920999857472],[-122.69474600029807,53.930764999768819],[-122.69671100035119,53.931379999874345],[-122.75903000009568,53.931413000117928],[-122.75904000062056,53.933328000185099],[-122.75827399985424,53.934170999974448],[-122.75799500054373,53.935051999583457],[-122.75809599952704,53.935906000238674],[-122.75895900016208,53.937084999936872],[-122.75899199968671,53.937202999975547],[-122.75958600022923,53.937952000259202],[-122.75985999966271,53.938289999606951],[-122.76032899943107,53.939114000203659],[-122.76055800043443,53.939668000168801],[-122.76076400023018,53.940619999583546],[-122.76096599994969,53.942611000349892],[-122.76119499983473,53.942707999800625],[-122.76896400028203,53.942708000162213],[-122.77726800004321,53.94270399990706],[-122.7771579997964,53.951332999780753],[-122.78839599979766,53.951268999663228],[-122.78842100016772,53.962056000094798],[-122.79530700020524,53.967343000079843],[-122.79644199938309,53.966032999599818],[-122.79790900057931,53.965171999947792],[-122.79966499967522,53.964590999902882],[-122.80070199946759,53.964412999665456],[-122.80238000024268,53.964290000411232],[-122.80605400048658,53.964187999654577],[-122.80745599947076,53.964064999631269],[-122.80951600032348,53.963779999565219],[-122.81093500002585,53.963377999675373],[-122.81179000031207,53.962965999675689],[-122.81269300001337,53.962122999964294],[-122.81273299997459,53.967609000405908],[-122.82573199971802,53.967609000319193],[-122.8257979993611,53.981304999684824],[-122.85016500055706,53.981294999922817],[-122.8993854040492,53.981325572974228],[-122.89937097432015,53.978399806310705],[-122.89919510805251,53.978361370237138],[-122.89903651459537,53.978305332027546],[-122.89875113165294,53.978188599052899],[-122.89846575026274,53.978071883374909],[-122.89786765037491,53.977920738441853],[-122.89744368242305,53.977831306747909],[-122.89722702007471,53.97776721729447],[-122.89663466123855,53.97764104865238],[-122.89578102523882,53.977490760799384],[-122.89534157374744,53.977377400287409],[-122.89527619680536,53.977363717592816],[-122.89527636752351,53.977295642960613],[-122.89527759469451,53.97680629472665],[-122.89527111249389,53.976351174865599],[-122.89518761991312,53.96830760247493],[-122.89513716625937,53.961990171735557],[-122.88997325749644,53.961989868308152],[-122.8899338164717,53.959314927888023],[-122.88987913968593,53.955599235103961],[-122.88989485827031,53.950326901541011],[-122.88981280133382,53.941338822121928],[-122.88981182621865,53.941130748770327],[-122.88977037736693,53.932350765480678],[-122.88974361020269,53.926672994157052],[-122.88975796742318,53.923362713852086],[-122.88979701849539,53.914374704911722],[-122.88980638751907,53.912203829024797],[-122.88984274738577,53.905386688559481],[-122.88985648481348,53.902811106743528]]]},"properties":{"OBJECTID":22,"SchoolNam":"DP Todd Secondary"}}]}