{
  "type": "FeatureCollection",
  "features": [
    {
      "type": "Feature",
      "id": "0",
      "properties": {
        "id": "0",
        "value": 0,
        "agreement": 1,
        "label": "Woodland",
        "color": "#21918c"
      },
      "geometry": {
        "type": "Polygon",
        "coordinates": [
          [
            [
              -5.625,
              52.48278022207821
            ],
            [
              -4.21875,
              52.48278022207821
            ],
            [
              -4.21875,
              51.618016548773696
            ],
            [
              -5.625,
              51.618016548773696
            ],
            [
              -5.625,
              52.48278022207821
            ]
          ]
        ]
      }
    },
    {
      "type": "Feature",
      "id": "1",
      "properties": {
        "id": "1",
        "value": 0,
        "agreement": 1,
        "label": "Woodland",
        "color": "#21918c"
      },
      "geometry": {
        "type": "Polygon",
        "coordinates": [
          [
            [
              -4.21875,
              52.48278022207821
            ],
            [
              -2.8125,
              52.48278022207821
            ],
            [
              -2.8125,
              51.618016548773696
            ],
            [
              -4.21875,
              51.618016548773696
            ],
            [
              -4.21875,
              52.48278022207821
            ]
          ]
        ]
      }
    },
    {
      "type": "Feature",
      "id": "2",
      "properties": {
        "id": "2",
        "value": 1,
        "agreement": 1,
        "label": "Meadow",
        "color": "#f4c46b"
      },
      "geometry": {
        "type": "Polygon",
        "coordinates": [
          [
            [
              -2.8125,
              52.48278022207821
            ],
            [
              -1.40625,
              52.48278022207821
            ],
            [
              -1.40625,
              51.618016548773696
            ],
            [
              -2.8125,
              51.618016548773696
            ],
            [
              -2.8125,
              52.48278022207821
            ]
          ]
        ]
      }
    },
    {
      "type": "Feature",
      "id": "3",
      "properties": {
        "id": "3",
        "value": 1,
        "agreement": 1,
        "label": "Meadow",
        "color": "#f4c46b"
      },
      "geometry": {
        "type": "Polygon",
        "coordinates": [
          [
            [
              -1.40625,
              52.48278022207821
            ],
            [
              0,
              52.48278022207821
            ],
            [
              0,
              51.618016548773696
            ],
            [
              -1.40625,
              51.618016548773696
            ],
            [
              -1.40625,
              52.48278022207821
            ]
          ]
        ]
      }
    },
    {
      "type": "Feature",
      "id": "4",
      "properties": {
        "id": "4",
        "value": 0,
        "agreement": 1,
        "label": "Woodland",
        "color": "#21918c"
      },
      "geometry": {
        "type": "Polygon",
        "coordinates": [
          [
            [
              -5.625,
              51.618016548773696
            ],
            [
              -4.21875,
              51.618016548773696
            ],
            [
              -4.21875,
              50.73645513701065
            ],
            [
              -5.625,
              50.73645513701065
            ],
            [
              -5.625,
              51.618016548773696
            ]
          ]
        ]
      }
    },
    {
      "type": "Feature",
      "id": "5",
      "properties": {
        "id": "5",
        "value": 2,
        "agreement": 1,
        "label": "Wetland",
        "color": "#7387dc"
      },
      "geometry": {
        "type": "Polygon",
        "coordinates": [
          [
            [
              -4.21875,
              51.618016548773696
            ],
            [
              -2.8125,
              51.618016548773696
            ],
            [
              -2.8125,
              50.73645513701065
            ],
            [
              -4.21875,
              50.73645513701065
            ],
            [
              -4.21875,
              51.618016548773696
            ]
          ]
        ]
      }
    },
    {
      "type": "Feature",
      "id": "6",
      "properties": {
        "id": "6",
        "value": 1,
        "agreement": 1,
        "label": "Meadow",
        "color": "#f4c46b"
      },
      "geometry": {
        "type": "Polygon",
        "coordinates": [
          [
            [
              -2.8125,
              51.618016548773696
            ],
            [
              -1.40625,
              51.618016548773696
            ],
            [
              -1.40625,
              50.73645513701065
            ],
            [
              -2.8125,
              50.73645513701065
            ],
            [
              -2.8125,
              51.618016548773696
            ]
          ]
        ]
      }
    },
    {
      "type": "Feature",
      "id": "7",
      "properties": {
        "id": "7",
        "value": 1,
        "agreement": 1,
        "label": "Meadow",
        "color": "#f4c46b"
      },
      "geometry": {
        "type": "Polygon",
        "coordinates": [
          [
            [
              -1.40625,
              51.618016548773696
            ],
            [
              0,
              51.618016548773696
            ],
            [
              0,
              50.73645513701065
            ],
            [
              -1.40625,
              50.73645513701065
            ],
            [
              -1.40625,
              51.618016548773696
            ]
          ]
        ]
      }
    },
    {
      "type": "Feature",
      "id": "8",
      "properties": {
        "id": "8",
        "value": 0,
        "agreement": 1,
        "label": "Woodland",
        "color": "#21918c"
      },
      "geometry": {
        "type": "Polygon",
        "coordinates": [
          [
            [
              -5.625,
              50.73645513701065
            ],
            [
              -4.21875,
              50.73645513701065
            ],
            [
              -4.21875,
              49.83798245308484
            ],
            [
              -5.625,
              49.83798245308484
            ],
            [
              -5.625,
              50.73645513701065
            ]
          ]
        ]
      }
    },
    {
      "type": "Feature",
      "id": "9",
      "properties": {
        "id": "9",
        "value": 2,
        "agreement": 1,
        "label": "Wetland",
        "color": "#7387dc"
      },
      "geometry": {
        "type": "Polygon",
        "coordinates": [
          [
            [
              -4.21875,
              50.73645513701065
            ],
            [
              -2.8125,
              50.73645513701065
            ],
            [
              -2.8125,
              49.83798245308484
            ],
            [
              -4.21875,
              49.83798245308484
            ],
            [
              -4.21875,
              50.73645513701065
            ]
          ]
        ]
      }
    },
    {
      "type": "Feature",
      "id": "10",
      "properties": {
        "id": "10",
        "value": 0,
        "agreement": 1,
        "label": "Woodland",
        "color": "#21918c"
      },
      "geometry": {
        "type": "Polygon",
        "coordinates": [
          [
            [
              -2.8125,
              50.73645513701065
            ],
            [
              -1.40625,
              50.73645513701065
            ],
            [
              -1.40625,
              49.83798245308484
            ],
            [
              -2.8125,
              49.83798245308484
            ],
            [
              -2.8125,
              50.73645513701065
            ]
          ]
        ]
      }
    },
    {
      "type": "Feature",
      "id": "11",
      "properties": {
        "id": "11",
        "value": 1,
        "agreement": 1,
        "label": "Meadow",
        "color": "#f4c46b"
      },
      "geometry": {
        "type": "Polygon",
        "coordinates": [
          [
            [
              -1.40625,
              50.73645513701065
            ],
            [
              0,
              50.73645513701065
            ],
            [
              0,
              49.83798245308484
            ],
            [
              -1.40625,
              49.83798245308484
            ],
            [
              -1.40625,
              50.73645513701065
            ]
          ]
        ]
      }
    },
    {
      "type": "Feature",
      "id": "12",
      "properties": {
        "id": "12",
        "value": 0,
        "agreement": 1,
        "label": "Woodland",
        "color": "#21918c"
      },
      "geometry": {
        "type": "Polygon",
        "coordinates": [
          [
            [
              -5.625,
              49.83798245308484
            ],
            [
              -4.21875,
              49.83798245308484
            ],
            [
              -4.21875,
              48.92249926375824
            ],
            [
              -5.625,
              48.92249926375824
            ],
            [
              -5.625,
              49.83798245308484
            ]
          ]
        ]
      }
    },
    {
      "type": "Feature",
      "id": "13",
      "properties": {
        "id": "13",
        "value": 0,
        "agreement": 1,
        "label": "Woodland",
        "color": "#21918c"
      },
      "geometry": {
        "type": "Polygon",
        "coordinates": [
          [
            [
              -4.21875,
              49.83798245308484
            ],
            [
              -2.8125,
              49.83798245308484
            ],
            [
              -2.8125,
              48.92249926375824
            ],
            [
              -4.21875,
              48.92249926375824
            ],
            [
              -4.21875,
              49.83798245308484
            ]
          ]
        ]
      }
    },
    {
      "type": "Feature",
      "id": "14",
      "properties": {
        "id": "14",
        "value": -2,
        "agreement": 0,
        "label": "Uncertain observation",
        "color": "#df91b9"
      },
      "geometry": {
        "type": "Polygon",
        "coordinates": [
          [
            [
              -2.8125,
              49.83798245308484
            ],
            [
              -1.40625,
              49.83798245308484
            ],
            [
              -1.40625,
              48.92249926375824
            ],
            [
              -2.8125,
              48.92249926375824
            ],
            [
              -2.8125,
              49.83798245308484
            ]
          ]
        ]
      }
    },
    {
      "type": "Feature",
      "id": "15",
      "properties": {
        "id": "15",
        "value": -1,
        "agreement": 1,
        "label": "No observation",
        "color": "#667085"
      },
      "geometry": {
        "type": "Polygon",
        "coordinates": [
          [
            [
              -1.40625,
              49.83798245308484
            ],
            [
              0,
              49.83798245308484
            ],
            [
              0,
              48.92249926375824
            ],
            [
              -1.40625,
              48.92249926375824
            ],
            [
              -1.40625,
              49.83798245308484
            ]
          ]
        ]
      }
    }
  ]
}
